{"type":"FeatureCollection","features":[{"type":"Feature","properties":{"id":"london","nationId":"gb","name":"London","part":0},"geometry":{"type":"MultiPolygon","coordinates":[[[[-6.197885,53.867565],[-6.95373,54.073702],[-7.572168,54.059956],[-7.366031,54.595841],[-7.572168,55.131622],[-6.733847,55.17286],[-5.661949,54.554603],[-6.197885,53.867565]]],[[[-3.093831,53.404547],[-3.09208,53.404441],[-2.945009,53.985],[-3.614701,54.600937],[-3.630005,54.615013],[-4.844169,54.790971],[-5.082527,55.061601],[-4.719112,55.508473],[-5.047981,55.783986],[-5.586398,55.311146],[-5.644999,56.275015],[-6.149981,56.78501],[-5.786825,57.818848],[-5.009999,58.630013],[-4.211495,58.550845],[-3.005005,58.635],[-4.073828,57.553025],[-3.055002,57.690019],[-1.959281,57.6848],[-2.219988,56.870017],[-3.119003,55.973793],[-2.085009,55.909998],[-2.005676,55.804903],[-1.114991,54.624986],[-0.430485,54.464376],[0.184981,53.325014],[0.469977,52.929999],[1.681531,52.73952],[1.559988,52.099998],[1.050562,51.806761],[1.449865,51.289428],[0.550334,50.765739],[-0.787517,50.774989],[-2.489998,50.500019],[-2.956274,50.69688],[-3.617448,50.228356],[-4.542508,50.341837],[-5.245023,49.96],[-5.776567,50.159678],[-4.30999,51.210001],[-3.414851,51.426009],[-3.422719,51.426848],[-4.984367,51.593466],[-5.267296,51.9914],[-4.222347,52.301356],[-4.770013,52.840005],[-4.579999,53.495004],[-3.093831,53.404547]]]]}},{"type":"Feature","properties":{"id":"paris","nationId":"fr","name":"Paris","part":0},"geometry":{"type":"MultiPolygon","coordinates":[[[[-51.657797,4.156232],[-52.249338,3.241094],[-52.556425,2.504705],[-52.939657,2.124858],[-53.418465,2.053389],[-53.554839,2.334897],[-53.778521,2.376703],[-54.088063,2.105557],[-54.524754,2.311849],[-54.269705,2.732392],[-54.181726,3.18978],[-54.006931,3.620038],[-54.399542,4.212611],[-54.478633,4.896756],[-53.958045,5.756548],[-53.618453,5.646529],[-52.882141,5.409851],[-51.823343,4.565768],[-51.657797,4.156232]]],[[[6.18632,49.463803],[6.65823,49.201958],[8.099279,49.017784],[7.593676,48.333019],[7.466759,47.620582],[7.192202,47.449766],[6.736571,47.541801],[6.768714,47.287708],[6.037389,46.725779],[6.022609,46.27299],[6.5001,46.429673],[6.843593,45.991147],[6.802355,45.70858],[7.096652,45.333099],[6.749955,45.028518],[7.007562,44.254767],[7.549596,44.127901],[7.435185,43.693845],[6.529245,43.128892],[4.556963,43.399651],[3.100411,43.075201],[2.985999,42.473015],[1.826793,42.343385],[0.701591,42.795734],[0.338047,42.579546],[-1.502771,43.034014],[-1.901351,43.422802],[-1.384225,44.02261],[-1.193798,46.014918],[-2.225724,47.064363],[-2.963276,47.570327],[-4.491555,47.954954],[-4.59235,48.68416],[-3.295814,48.901692],[-1.616511,48.644421],[-1.933494,49.776342],[-0.989469,49.347376],[1.338761,50.127173],[1.639001,50.946606],[2.513573,51.148506],[2.658422,50.796848],[3.123252,50.780363],[3.588184,50.378992],[4.286023,49.907497],[4.799222,49.985373],[5.674052,49.529484],[5.897759,49.442667],[6.18632,49.463803]]],[[[8.746009,42.628122],[9.390001,43.009985],[9.560016,42.152492],[9.229752,41.380007],[8.775723,41.583612],[8.544213,42.256517],[8.746009,42.628122]]]]}},{"type":"Feature","properties":{"id":"berlin","nationId":"de","name":"Berlin","part":0},"geometry":{"type":"Polygon","coordinates":[[[14.119686,53.757029],[14.353315,53.248171],[14.074521,52.981263],[14.4376,52.62485],[14.685026,52.089947],[14.607098,51.745188],[15.016996,51.106674],[14.570718,51.002339],[14.307013,51.117268],[14.056228,50.926918],[13.338132,50.733234],[12.966837,50.484076],[12.240111,50.266338],[12.415191,49.969121],[12.521024,49.547415],[13.031329,49.307068],[13.595946,48.877172],[13.243357,48.416115],[12.884103,48.289146],[13.025851,47.637584],[12.932627,47.467646],[12.62076,47.672388],[12.141357,47.703083],[11.426414,47.523766],[10.544504,47.566399],[10.402084,47.302488],[9.896068,47.580197],[9.594226,47.525058],[8.522612,47.830828],[8.317301,47.61358],[7.466759,47.620582],[7.593676,48.333019],[8.099279,49.017784],[6.65823,49.201958],[6.18632,49.463803],[6.242751,49.902226],[6.043073,50.128052],[6.156658,50.803721],[5.988658,51.851616],[6.589397,51.852029],[6.84287,52.22844],[7.092053,53.144043],[6.90514,53.482162],[7.100425,53.693932],[7.936239,53.748296],[8.121706,53.527792],[8.800734,54.020786],[8.572118,54.395646],[8.526229,54.962744],[9.282049,54.830865],[9.921906,54.983104],[9.93958,54.596642],[10.950112,54.363607],[10.939467,54.008693],[11.956252,54.196486],[12.51844,54.470371],[13.647467,54.075511],[14.119686,53.757029]]]}},{"type":"Feature","properties":{"id":"brussels","nationId":"be","name":"Brussels","part":0},"geometry":{"type":"Polygon","coordinates":[[[6.156658,50.803721],[6.043073,50.128052],[5.782417,50.090328],[5.674052,49.529484],[4.799222,49.985373],[4.286023,49.907497],[3.588184,50.378992],[3.123252,50.780363],[2.658422,50.796848],[2.513573,51.148506],[3.314971,51.345781],[3.315011,51.345777],[3.314971,51.345755],[4.047071,51.267259],[4.973991,51.475024],[5.606976,51.037298],[6.156658,50.803721]]]}},{"type":"Feature","properties":{"id":"lisbon","nationId":"pt","name":"Lisbon","part":0},"geometry":{"type":"Polygon","coordinates":[[[-9.034818,41.880571],[-8.671946,42.134689],[-8.263857,42.280469],[-8.013175,41.790886],[-7.422513,41.792075],[-7.251309,41.918346],[-6.668606,41.883387],[-6.389088,41.381815],[-6.851127,41.111083],[-6.86402,40.330872],[-7.026413,40.184524],[-7.066592,39.711892],[-7.498632,39.629571],[-7.098037,39.030073],[-7.374092,38.373059],[-7.029281,38.075764],[-7.166508,37.803894],[-7.537105,37.428904],[-7.453726,37.097788],[-7.855613,36.838269],[-8.382816,36.97888],[-8.898857,36.868809],[-8.746101,37.651346],[-8.839998,38.266243],[-9.287464,38.358486],[-9.526571,38.737429],[-9.446989,39.392066],[-9.048305,39.755093],[-8.977353,40.159306],[-8.768684,40.760639],[-8.790853,41.184334],[-8.990789,41.543459],[-9.034818,41.880571]]]}},{"type":"Feature","properties":{"id":"rome","nationId":"it","name":"Rome","part":0},"geometry":{"type":"MultiPolygon","coordinates":[[[[10.442701,46.893546],[11.048556,46.751359],[11.164828,46.941579],[12.153088,47.115393],[12.376485,46.767559],[13.806475,46.509306],[13.69811,46.016778],[13.93763,45.591016],[13.141606,45.736692],[12.328581,45.381778],[12.383875,44.885374],[12.261453,44.600482],[12.589237,44.091366],[13.526906,43.587727],[14.029821,42.761008],[15.14257,41.95514],[15.926191,41.961315],[16.169897,41.740295],[15.889346,41.541082],[16.785002,41.179606],[17.519169,40.877143],[18.376687,40.355625],[18.480247,40.168866],[18.293385,39.810774],[17.73838,40.277671],[16.869596,40.442235],[16.448743,39.795401],[17.17149,39.4247],[17.052841,38.902871],[16.635088,38.843572],[16.100961,37.985899],[15.684087,37.908849],[15.687963,38.214593],[15.891981,38.750942],[16.109332,38.964547],[15.718814,39.544072],[15.413613,40.048357],[14.998496,40.172949],[14.703268,40.60455],[14.060672,40.786348],[13.627985,41.188287],[12.888082,41.25309],[12.106683,41.704535],[11.191906,42.355425],[10.511948,42.931463],[10.200029,43.920007],[9.702488,44.036279],[8.888946,44.366336],[8.428561,44.231228],[7.850767,43.767148],[7.435185,43.693845],[7.549596,44.127901],[7.007562,44.254767],[6.749955,45.028518],[7.096652,45.333099],[6.802355,45.70858],[6.843593,45.991147],[7.273851,45.776948],[7.755992,45.82449],[8.31663,46.163642],[8.489952,46.005151],[8.966306,46.036932],[9.182882,46.440215],[9.922837,46.314899],[10.363378,46.483571],[10.442701,46.893546]]],[[[14.761249,38.143874],[15.520376,38.231155],[15.160243,37.444046],[15.309898,37.134219],[15.099988,36.619987],[14.335229,36.996631],[13.826733,37.104531],[12.431004,37.61295],[12.570944,38.126381],[13.741156,38.034966],[14.761249,38.143874]]],[[[8.709991,40.899984],[9.210012,41.209991],[9.809975,40.500009],[9.669519,39.177376],[9.214818,39.240473],[8.806936,38.906618],[8.428302,39.171847],[8.388253,40.378311],[8.159998,40.950007],[8.709991,40.899984]]]]}},{"type":"Feature","properties":{"id":"madrid","nationId":"es","name":"Madrid","part":0},"geometry":{"type":"Polygon","coordinates":[[[-7.453726,37.097788],[-7.537105,37.428904],[-7.166508,37.803894],[-7.029281,38.075764],[-7.374092,38.373059],[-7.098037,39.030073],[-7.498632,39.629571],[-7.066592,39.711892],[-7.026413,40.184524],[-6.86402,40.330872],[-6.851127,41.111083],[-6.389088,41.381815],[-6.668606,41.883387],[-7.251309,41.918346],[-7.422513,41.792075],[-8.013175,41.790886],[-8.263857,42.280469],[-8.671946,42.134689],[-9.034818,41.880571],[-8.984433,42.592775],[-9.392884,43.026625],[-7.97819,43.748338],[-6.754492,43.567909],[-5.411886,43.57424],[-4.347843,43.403449],[-3.517532,43.455901],[-1.901351,43.422802],[-1.502771,43.034014],[0.338047,42.579546],[0.701591,42.795734],[1.826793,42.343385],[2.985999,42.473015],[3.039484,41.89212],[2.091842,41.226089],[0.810525,41.014732],[0.721331,40.678318],[0.106692,40.123934],[-0.278711,39.309978],[0.111291,38.738514],[-0.467124,38.292366],[-0.683389,37.642354],[-1.438382,37.443064],[-2.146453,36.674144],[-3.415781,36.6589],[-4.368901,36.677839],[-4.995219,36.324708],[-5.37716,35.94685],[-5.866432,36.029817],[-6.236694,36.367677],[-6.520191,36.942913],[-7.453726,37.097788]]]}},{"type":"Feature","properties":{"id":"addis","nationId":"et","name":"Addis Ababa","part":0},"geometry":{"type":"Polygon","coordinates":[[[47.78942,8.003],[44.9636,5.00162],[43.66087,4.95755],[42.76967,4.25259],[42.12861,4.23413],[41.855083,3.918912],[41.1718,3.91909],[40.76848,4.25702],[39.85494,3.83879],[39.559384,3.42206],[38.89251,3.50074],[38.67114,3.61607],[38.43697,3.58851],[38.120915,3.598605],[36.855093,4.447864],[36.159079,4.447864],[35.817448,4.776966],[35.817448,5.338232],[35.298007,5.506],[34.70702,6.59422],[34.25032,6.82607],[34.0751,7.22595],[33.56829,7.71334],[32.95418,7.78497],[33.2948,8.35458],[33.8255,8.37916],[33.97498,8.68456],[33.96162,9.58358],[34.25745,10.63009],[34.73115,10.91017],[34.83163,11.31896],[35.26049,12.08286],[35.86363,12.57828],[36.27022,13.56333],[36.42951,14.42211],[37.59377,14.2131],[37.90607,14.95943],[38.51295,14.50547],[39.0994,14.74064],[39.34061,14.53155],[40.02625,14.51959],[40.8966,14.11864],[41.1552,13.77333],[41.59856,13.45209],[42.00975,12.86582],[42.35156,12.54223],[42,12.1],[41.66176,11.6312],[41.73959,11.35511],[41.75557,11.05091],[42.31414,11.0342],[42.55493,11.10511],[42.776852,10.926879],[42.55876,10.57258],[42.92812,10.02194],[43.29699,9.54048],[43.67875,9.18358],[46.94834,7.99688],[47.78942,8.003]]]}},{"type":"Feature","properties":{"id":"kumasi","nationId":"as","name":"Kumasi","part":0},"geometry":{"type":"Polygon","coordinates":[[[0.023803,11.018682],[-0.049785,10.706918],[0.36758,10.191213],[0.365901,9.465004],[0.461192,8.677223],[0.712029,8.312465],[0.490957,7.411744],[0.570384,6.914359],[0.836931,6.279979],[1.060122,5.928837],[-0.507638,5.343473],[-1.063625,5.000548],[-1.964707,4.710462],[-2.856125,4.994476],[-2.810701,5.389051],[-3.24437,6.250472],[-2.983585,7.379705],[-2.56219,8.219628],[-2.827496,9.642461],[-2.963896,10.395335],[-2.940409,10.96269],[-1.203358,11.009819],[-0.761576,10.93693],[-0.438702,11.098341],[0.023803,11.018682]]]}},{"type":"Feature","properties":{"id":"sokoto","nationId":"sk","name":"Sokoto","part":0},"geometry":{"type":"Polygon","coordinates":[[[4.4,11.4],[6.6,11.4],[6.6,13.9],[4.4,13.9],[4.4,11.4]]]}},{"type":"Feature","properties":{"id":"ulundi","nationId":"zu","name":"Ulundi","part":0},"geometry":{"type":"Polygon","coordinates":[[[30.7,-29.25],[32.25,-29.25],[32.25,-27.7],[30.7,-27.7],[30.7,-29.25]]]}},{"type":"Feature","properties":{"id":"mengo","nationId":"bg","name":"Mengo","part":0},"geometry":{"type":"Polygon","coordinates":[[[33.903711,-0.95],[31.86617,-1.02736],[30.76986,-1.01455],[30.419105,-1.134659],[29.821519,-1.443322],[29.579466,-1.341313],[29.587838,-0.587406],[29.819503,-0.20531],[29.875779,0.59738],[30.086154,1.062313],[30.468508,1.583805],[30.85267,1.849396],[31.174149,2.204465],[30.773347,2.339883],[30.83386,3.509166],[30.833852,3.509172],[31.24556,3.7819],[31.88145,3.55827],[32.68642,3.79232],[33.39,3.79],[34.005,4.249885],[34.47913,3.5556],[34.59607,3.05374],[35.03599,1.90584],[34.6721,1.17694],[34.18,0.515],[33.893569,0.109814],[33.903711,-0.95]]]}},{"type":"Feature","properties":{"id":"antananarivo","nationId":"mg","name":"Antananarivo","part":0},"geometry":{"type":"Polygon","coordinates":[[[49.543519,-12.469833],[49.808981,-12.895285],[50.056511,-13.555761],[50.217431,-14.758789],[50.476537,-15.226512],[50.377111,-15.706069],[50.200275,-16.000263],[49.860606,-15.414253],[49.672607,-15.710204],[49.863344,-16.451037],[49.774564,-16.875042],[49.498612,-17.106036],[49.435619,-17.953064],[49.041792,-19.118781],[48.548541,-20.496888],[47.930749,-22.391501],[47.547723,-23.781959],[47.095761,-24.94163],[46.282478,-25.178463],[45.409508,-25.601434],[44.833574,-25.346101],[44.03972,-24.988345],[43.763768,-24.460677],[43.697778,-23.574116],[43.345654,-22.776904],[43.254187,-22.057413],[43.433298,-21.336475],[43.893683,-21.163307],[43.89637,-20.830459],[44.374325,-20.072366],[44.464397,-19.435454],[44.232422,-18.961995],[44.042976,-18.331387],[43.963084,-17.409945],[44.312469,-16.850496],[44.446517,-16.216219],[44.944937,-16.179374],[45.502732,-15.974373],[45.872994,-15.793454],[46.312243,-15.780018],[46.882183,-15.210182],[47.70513,-14.594303],[48.005215,-14.091233],[47.869047,-13.663869],[48.293828,-13.784068],[48.84506,-13.089175],[48.863509,-12.487868],[49.194651,-12.040557],[49.543519,-12.469833]]]}}]}