{"type":"FeatureCollection","note":"OurAirports CC0.","features":[{"type":"Feature","properties":{"id":"airport-bkpr","name":"Pri\u0161tina Adem Jashari International Airport","icao":"BKPR","iata":"PRN","kind":"large_airport"},"geometry":{"type":"Point","coordinates":[21.0358,42.5728]}},{"type":"Feature","properties":{"id":"airport-edah","name":"Heringsdorf Airport","icao":"EDAH","iata":"HDF","kind":"medium_airport"},"geometry":{"type":"Point","coordinates":[14.1523,53.8787]}},{"type":"Feature","properties":{"id":"airport-ekrn","name":"Bornholm Airport","icao":"EKRN","iata":"RNN","kind":"medium_airport"},"geometry":{"type":"Point","coordinates":[14.7596,55.0633]}},{"type":"Feature","properties":{"id":"airport-epby","name":"Ignacy Jan Paderewski Bydgoszcz Airport","icao":"EPBY","iata":"BZG","kind":"medium_airport"},"geometry":{"type":"Point","coordinates":[17.9777,53.0968]}},{"type":"Feature","properties":{"id":"airport-epgd","name":"Gda\u0144sk Lech Wa\u0142\u0119sa Airport","icao":"EPGD","iata":"GDN","kind":"large_airport"},"geometry":{"type":"Point","coordinates":[18.4662,54.3776]}},{"type":"Feature","properties":{"id":"airport-epkk","name":"Krak\u00f3w John Paul II International Airport","icao":"EPKK","iata":"KRK","kind":"large_airport"},"geometry":{"type":"Point","coordinates":[19.7848,50.0777]}},{"type":"Feature","properties":{"id":"airport-epkt","name":"Katowice Wojciech Korfanty International Airport","icao":"EPKT","iata":"KTW","kind":"large_airport"},"geometry":{"type":"Point","coordinates":[19.0807,50.476]}},{"type":"Feature","properties":{"id":"airport-eplb","name":"Lublin Airport","icao":"EPLB","iata":"LUZ","kind":"large_airport"},"geometry":{"type":"Point","coordinates":[22.7135,51.2402]}},{"type":"Feature","properties":{"id":"airport-epll","name":"\u0141\u00f3d\u017a W\u0142adys\u0142aw Reymont Airport","icao":"EPLL","iata":"LCJ","kind":"large_airport"},"geometry":{"type":"Point","coordinates":[19.3981,51.7219]}},{"type":"Feature","properties":{"id":"airport-epmo","name":"Warsaw Modlin Airport","icao":"EPMO","iata":"WMI","kind":"large_airport"},"geometry":{"type":"Point","coordinates":[20.6518,52.4511]}},{"type":"Feature","properties":{"id":"airport-eppo","name":"Pozna\u0144-\u0141awica Airport","icao":"EPPO","iata":"POZ","kind":"large_airport"},"geometry":{"type":"Point","coordinates":[16.8234,52.4216]}},{"type":"Feature","properties":{"id":"airport-epra","name":"Warsaw Radom Airport","icao":"EPRA","iata":"RDO","kind":"medium_airport"},"geometry":{"type":"Point","coordinates":[21.2147,51.3894]}},{"type":"Feature","properties":{"id":"airport-eprz","name":"Rzesz\u00f3w-Jasionka Airport","icao":"EPRZ","iata":"RZE","kind":"large_airport"},"geometry":{"type":"Point","coordinates":[22.0242,50.1098]}},{"type":"Feature","properties":{"id":"airport-epsc","name":"Solidarity Szczecin\u2013Goleni\u00f3w Airport","icao":"EPSC","iata":"SZZ","kind":"large_airport"},"geometry":{"type":"Point","coordinates":[14.9022,53.5847]}},{"type":"Feature","properties":{"id":"airport-epsy","name":"Olsztyn-Mazury Airport","icao":"EPSY","iata":"SZY","kind":"medium_airport"},"geometry":{"type":"Point","coordinates":[20.9377,53.4819]}},{"type":"Feature","properties":{"id":"airport-epwa","name":"Warsaw Chopin Airport","icao":"EPWA","iata":"WAW","kind":"large_airport"},"geometry":{"type":"Point","coordinates":[20.9671,52.1657]}},{"type":"Feature","properties":{"id":"airport-epwr","name":"Copernicus Wroc\u0142aw Airport","icao":"EPWR","iata":"WRO","kind":"large_airport"},"geometry":{"type":"Point","coordinates":[16.8821,51.1037]}},{"type":"Feature","properties":{"id":"airport-epzg","name":"Zielona G\u00f3ra-Babimost Airport","icao":"EPZG","iata":"IEG","kind":"medium_airport"},"geometry":{"type":"Point","coordinates":[15.7986,52.1385]}},{"type":"Feature","properties":{"id":"airport-eyka","name":"Kaunas International Airport","icao":"EYKA","iata":"KUN","kind":"large_airport"},"geometry":{"type":"Point","coordinates":[24.0858,54.964]}},{"type":"Feature","properties":{"id":"airport-eypa","name":"Palanga International Airport","icao":"EYPA","iata":"PLQ","kind":"large_airport"},"geometry":{"type":"Point","coordinates":[21.0939,55.9732]}},{"type":"Feature","properties":{"id":"airport-eyvi","name":"Vilnius International Airport","icao":"EYVI","iata":"VNO","kind":"large_airport"},"geometry":{"type":"Point","coordinates":[25.2858,54.6341]}},{"type":"Feature","properties":{"id":"airport-lati","name":"Tirana International Airport Mother Teresa","icao":"LATI","iata":"TIA","kind":"large_airport"},"geometry":{"type":"Point","coordinates":[19.7206,41.4147]}},{"type":"Feature","properties":{"id":"airport-lbbg","name":"Burgas Airport","icao":"LBBG","iata":"BOJ","kind":"large_airport"},"geometry":{"type":"Point","coordinates":[27.5152,42.5699]}},{"type":"Feature","properties":{"id":"airport-lbpd","name":"Plovdiv International Airport","icao":"LBPD","iata":"PDV","kind":"large_airport"},"geometry":{"type":"Point","coordinates":[24.8508,42.0678]}},{"type":"Feature","properties":{"id":"airport-lbsf","name":"Sofia Airport","icao":"LBSF","iata":"SOF","kind":"large_airport"},"geometry":{"type":"Point","coordinates":[23.4177,42.6964]}},{"type":"Feature","properties":{"id":"airport-lbwn","name":"Varna Airport","icao":"LBWN","iata":"VAR","kind":"large_airport"},"geometry":{"type":"Point","coordinates":[27.8251,43.2321]}},{"type":"Feature","properties":{"id":"airport-lddu","name":"Dubrovnik Ru\u0111er Bo\u0161kovi\u0107 Airport","icao":"LDDU","iata":"DBV","kind":"large_airport"},"geometry":{"type":"Point","coordinates":[18.2655,42.5622]}},{"type":"Feature","properties":{"id":"airport-ldos","name":"Osijek Airport","icao":"LDOS","iata":"OSI","kind":"medium_airport"},"geometry":{"type":"Point","coordinates":[18.8113,45.4624]}},{"type":"Feature","properties":{"id":"airport-ldri","name":"Rijeka Airport","icao":"LDRI","iata":"RJK","kind":"large_airport"},"geometry":{"type":"Point","coordinates":[14.5709,45.2164]}},{"type":"Feature","properties":{"id":"airport-ldsb","name":"Bra\u010d Airport","icao":"LDSB","iata":"BWK","kind":"medium_airport"},"geometry":{"type":"Point","coordinates":[16.6784,43.2845]}},{"type":"Feature","properties":{"id":"airport-ldsp","name":"Split Saint Jerome Airport","icao":"LDSP","iata":"SPU","kind":"large_airport"},"geometry":{"type":"Point","coordinates":[16.298,43.5389]}},{"type":"Feature","properties":{"id":"airport-ldza","name":"Zagreb Franjo Tu\u0111man International Airport","icao":"LDZA","iata":"ZAG","kind":"large_airport"},"geometry":{"type":"Point","coordinates":[16.0688,45.7429]}},{"type":"Feature","properties":{"id":"airport-ldzd","name":"Zadar Airport","icao":"LDZD","iata":"ZAD","kind":"large_airport"},"geometry":{"type":"Point","coordinates":[15.3536,44.097]}},{"type":"Feature","properties":{"id":"airport-lgal","name":"Alexandroupoli Democritus Airport","icao":"LGAL","iata":"AXD","kind":"medium_airport"},"geometry":{"type":"Point","coordinates":[25.9563,40.8559]}},{"type":"Feature","properties":{"id":"airport-lgav","name":"Athens Eleftherios Venizelos International Airport","icao":"LGAV","iata":"ATH","kind":"large_airport"},"geometry":{"type":"Point","coordinates":[23.9445,37.9364]}},{"type":"Feature","properties":{"id":"airport-lgbl","name":"Nea Anchialos National Airport","icao":"LGBL","iata":"VOL","kind":"medium_airport"},"geometry":{"type":"Point","coordinates":[22.7943,39.2196]}},{"type":"Feature","properties":{"id":"airport-lghi","name":"Chios Island National Airport","icao":"LGHI","iata":"JKH","kind":"medium_airport"},"geometry":{"type":"Point","coordinates":[26.1406,38.3432]}},{"type":"Feature","properties":{"id":"airport-lgio","name":"Ioannina King Pyrrhus National Airport","icao":"LGIO","iata":"IOA","kind":"medium_airport"},"geometry":{"type":"Point","coordinates":[20.8225,39.6964]}},{"type":"Feature","properties":{"id":"airport-lgkf","name":"Kefallinia Airport","icao":"LGKF","iata":"EFL","kind":"medium_airport"},"geometry":{"type":"Point","coordinates":[20.5005,38.1201]}},{"type":"Feature","properties":{"id":"airport-lgkl","name":"Kalamata Airport","icao":"LGKL","iata":"KLX","kind":"medium_airport"},"geometry":{"type":"Point","coordinates":[22.0255,37.0683]}},{"type":"Feature","properties":{"id":"airport-lgko","name":"Kos International Airport \"Ippokratis\"","icao":"LGKO","iata":"KGS","kind":"large_airport"},"geometry":{"type":"Point","coordinates":[27.0911,36.7945]}},{"type":"Feature","properties":{"id":"airport-lgkr","name":"Corfu Ioannis Kapodistrias International Airport","icao":"LGKR","iata":"CFU","kind":"large_airport"},"geometry":{"type":"Point","coordinates":[19.9122,39.6014]}},{"type":"Feature","properties":{"id":"airport-lgkv","name":"Kavala Alexander the Great International Airport","icao":"LGKV","iata":"KVA","kind":"large_airport"},"geometry":{"type":"Point","coordinates":[24.6192,40.9133]}},{"type":"Feature","properties":{"id":"airport-lgkz","name":"Kozani National Airport Filippos","icao":"LGKZ","iata":"KZI","kind":"medium_airport"},"geometry":{"type":"Point","coordinates":[21.8408,40.2861]}},{"type":"Feature","properties":{"id":"airport-lgmk","name":"Mykonos Island National Airport","icao":"LGMK","iata":"JMK","kind":"medium_airport"},"geometry":{"type":"Point","coordinates":[25.3481,37.4351]}},{"type":"Feature","properties":{"id":"airport-lgmt","name":"Mytilene International Airport","icao":"LGMT","iata":"MJT","kind":"medium_airport"},"geometry":{"type":"Point","coordinates":[26.5986,39.0574]}},{"type":"Feature","properties":{"id":"airport-lgpz","name":"Aktion National Airport","icao":"LGPZ","iata":"PVK","kind":"medium_airport"},"geometry":{"type":"Point","coordinates":[20.7653,38.9255]}},{"type":"Feature","properties":{"id":"airport-lgrp","name":"Rhodes International Airport \"Diagoras\"","icao":"LGRP","iata":"RHO","kind":"large_airport"},"geometry":{"type":"Point","coordinates":[28.0862,36.4054]}},{"type":"Feature","properties":{"id":"airport-lgrx","name":"Patras Araxos Agamemnon Airport","icao":"LGRX","iata":"GPA","kind":"medium_airport"},"geometry":{"type":"Point","coordinates":[21.4256,38.1511]}},{"type":"Feature","properties":{"id":"airport-lgsk","name":"Skiathos Island National Airport","icao":"LGSK","iata":"JSI","kind":"medium_airport"},"geometry":{"type":"Point","coordinates":[23.5037,39.1771]}},{"type":"Feature","properties":{"id":"airport-lgsm","name":"Samos Airport","icao":"LGSM","iata":"SMI","kind":"medium_airport"},"geometry":{"type":"Point","coordinates":[26.9117,37.69]}},{"type":"Feature","properties":{"id":"airport-lgsr","name":"Santorini International Airport","icao":"LGSR","iata":"JTR","kind":"large_airport"},"geometry":{"type":"Point","coordinates":[25.4786,36.4]}},{"type":"Feature","properties":{"id":"airport-lgts","name":"Thessaloniki Macedonia International Airport","icao":"LGTS","iata":"SKG","kind":"large_airport"},"geometry":{"type":"Point","coordinates":[22.97,40.5193]}},{"type":"Feature","properties":{"id":"airport-lgza","name":"Zakynthos International Airport Dionysios Solomos","icao":"LGZA","iata":"ZTH","kind":"medium_airport"},"geometry":{"type":"Point","coordinates":[20.8843,37.7509]}},{"type":"Feature","properties":{"id":"airport-lhbp","name":"Budapest Liszt Ferenc International Airport","icao":"LHBP","iata":"BUD","kind":"large_airport"},"geometry":{"type":"Point","coordinates":[19.2624,47.4302]}},{"type":"Feature","properties":{"id":"airport-lhdc","name":"Debrecen International Airport","icao":"LHDC","iata":"DEB","kind":"large_airport"},"geometry":{"type":"Point","coordinates":[21.6163,47.4895]}},{"type":"Feature","properties":{"id":"airport-lhpp","name":"P\u00e9cs-Pog\u00e1ny International Airport","icao":"LHPP","iata":"PEV","kind":"large_airport"},"geometry":{"type":"Point","coordinates":[18.242,45.9889]}},{"type":"Feature","properties":{"id":"airport-lhpr","name":"Gy\u0151r-P\u00e9r Airport","icao":"LHPR","iata":"","kind":"medium_airport"},"geometry":{"type":"Point","coordinates":[17.8047,47.6284]}},{"type":"Feature","properties":{"id":"airport-lhsm","name":"H\u00e9v\u00edz\u2013Balaton Airport","icao":"LHSM","iata":"SOB","kind":"medium_airport"},"geometry":{"type":"Point","coordinates":[17.1591,46.6864]}},{"type":"Feature","properties":{"id":"airport-libc","name":"Crotone Sant'Anna Pythagoras Airport","icao":"LIBC","iata":"CRV","kind":"medium_airport"},"geometry":{"type":"Point","coordinates":[17.0802,38.9972]}},{"type":"Feature","properties":{"id":"airport-libd","name":"Bari Karol Wojty\u0142a International Airport","icao":"LIBD","iata":"BRI","kind":"large_airport"},"geometry":{"type":"Point","coordinates":[16.7606,41.1389]}},{"type":"Feature","properties":{"id":"airport-libf","name":"Foggia Gino Lisa Airport","icao":"LIBF","iata":"FOG","kind":"medium_airport"},"geometry":{"type":"Point","coordinates":[15.5346,41.4336]}},{"type":"Feature","properties":{"id":"airport-libp","name":"Abruzzo Airport","icao":"LIBP","iata":"PSR","kind":"large_airport"},"geometry":{"type":"Point","coordinates":[14.183,42.4311]}},{"type":"Feature","properties":{"id":"airport-libr","name":"Brindisi Airport","icao":"LIBR","iata":"BDS","kind":"large_airport"},"geometry":{"type":"Point","coordinates":[17.947,40.6576]}},{"type":"Feature","properties":{"id":"airport-lica","name":"Lamezia Terme Sant'Eufemia International Airport","icao":"LICA","iata":"SUF","kind":"large_airport"},"geometry":{"type":"Point","coordinates":[16.246,38.9062]}},{"type":"Feature","properties":{"id":"airport-licb","name":"Comiso Airport","icao":"LICB","iata":"CIY","kind":"medium_airport"},"geometry":{"type":"Point","coordinates":[14.6089,36.9958]}},{"type":"Feature","properties":{"id":"airport-licc","name":"Catania-Fontanarossa Airport","icao":"LICC","iata":"CTA","kind":"large_airport"},"geometry":{"type":"Point","coordinates":[15.0664,37.4668]}},{"type":"Feature","properties":{"id":"airport-licr","name":"Reggio Calabria Airport","icao":"LICR","iata":"REG","kind":"medium_airport"},"geometry":{"type":"Point","coordinates":[15.6516,38.0712]}},{"type":"Feature","properties":{"id":"airport-liri","name":"Salerno Costa d'Amalfi Airport","icao":"LIRI","iata":"QSR","kind":"medium_airport"},"geometry":{"type":"Point","coordinates":[14.9113,40.6204]}},{"type":"Feature","properties":{"id":"airport-lirn","name":"Naples International Airport","icao":"LIRN","iata":"NAP","kind":"large_airport"},"geometry":{"type":"Point","coordinates":[14.2908,40.886]}},{"type":"Feature","properties":{"id":"airport-ljlj","name":"Ljubljana Jo\u017ee Pu\u010dnik Airport","icao":"LJLJ","iata":"LJU","kind":"large_airport"},"geometry":{"type":"Point","coordinates":[14.4576,46.2237]}},{"type":"Feature","properties":{"id":"airport-ljmb","name":"Maribor Edvard Rusjan Airport","icao":"LJMB","iata":"MBX","kind":"medium_airport"},"geometry":{"type":"Point","coordinates":[15.6861,46.4799]}},{"type":"Feature","properties":{"id":"airport-lkcs","name":"\u010cesk\u00e9 Bud\u011bjovice South Bohemian Airport","icao":"LKCS","iata":"JCL","kind":"large_airport"},"geometry":{"type":"Point","coordinates":[14.4283,48.9482]}},{"type":"Feature","properties":{"id":"airport-lkmt","name":"Leo\u0161 Jan\u00e1\u010dek Airport Ostrava","icao":"LKMT","iata":"OSR","kind":"large_airport"},"geometry":{"type":"Point","coordinates":[18.1111,49.6963]}},{"type":"Feature","properties":{"id":"airport-lkpd","name":"Pardubice Airport","icao":"LKPD","iata":"PED","kind":"large_airport"},"geometry":{"type":"Point","coordinates":[15.7398,50.015]}},{"type":"Feature","properties":{"id":"airport-lkpr","name":"V\u00e1clav Havel Airport Prague","icao":"LKPR","iata":"PRG","kind":"large_airport"},"geometry":{"type":"Point","coordinates":[14.2599,50.1009]}},{"type":"Feature","properties":{"id":"airport-lktb","name":"Brno-Tu\u0159any Airport","icao":"LKTB","iata":"BRQ","kind":"medium_airport"},"geometry":{"type":"Point","coordinates":[16.694,49.1513]}},{"type":"Feature","properties":{"id":"airport-lowg","name":"Graz Airport","icao":"LOWG","iata":"GRZ","kind":"large_airport"},"geometry":{"type":"Point","coordinates":[15.4396,46.9911]}},{"type":"Feature","properties":{"id":"airport-lowk","name":"Klagenfurt Airport","icao":"LOWK","iata":"KLU","kind":"large_airport"},"geometry":{"type":"Point","coordinates":[14.3377,46.6425]}},{"type":"Feature","properties":{"id":"airport-lowl","name":"Linz-H\u00f6rsching Airport","icao":"LOWL","iata":"LNZ","kind":"large_airport"},"geometry":{"type":"Point","coordinates":[14.1881,48.2354]}},{"type":"Feature","properties":{"id":"airport-loww","name":"Vienna International Airport","icao":"LOWW","iata":"VIE","kind":"large_airport"},"geometry":{"type":"Point","coordinates":[16.5697,48.1103]}},{"type":"Feature","properties":{"id":"airport-lqbk","name":"Banja Luka International Airport","icao":"LQBK","iata":"BNX","kind":"large_airport"},"geometry":{"type":"Point","coordinates":[17.2975,44.9414]}},{"type":"Feature","properties":{"id":"airport-lqmo","name":"Mostar International Airport","icao":"LQMO","iata":"OMO","kind":"large_airport"},"geometry":{"type":"Point","coordinates":[17.8461,43.2825]}},{"type":"Feature","properties":{"id":"airport-lqsa","name":"Sarajevo International Airport","icao":"LQSA","iata":"SJJ","kind":"large_airport"},"geometry":{"type":"Point","coordinates":[18.3315,43.8246]}},{"type":"Feature","properties":{"id":"airport-lqtz","name":"Tuzla International Airport","icao":"LQTZ","iata":"TZL","kind":"large_airport"},"geometry":{"type":"Point","coordinates":[18.7236,44.4599]}},{"type":"Feature","properties":{"id":"airport-lrar","name":"Arad International Airport","icao":"LRAR","iata":"ARW","kind":"medium_airport"},"geometry":{"type":"Point","coordinates":[21.2643,46.1761]}},{"type":"Feature","properties":{"id":"airport-lrbc","name":"Bac\u0103u George Enescu International  Airport","icao":"LRBC","iata":"BCM","kind":"large_airport"},"geometry":{"type":"Point","coordinates":[26.9103,46.5219]}},{"type":"Feature","properties":{"id":"airport-lrbm","name":"Maramure\u0219 International Airport","icao":"LRBM","iata":"BAY","kind":"medium_airport"},"geometry":{"type":"Point","coordinates":[23.4644,47.6584]}},{"type":"Feature","properties":{"id":"airport-lrbs","name":"Bucharest B\u0103neasa Aurel Vlaicu International Airport","icao":"LRBS","iata":"BBU","kind":"large_airport"},"geometry":{"type":"Point","coordinates":[26.1029,44.5031]}},{"type":"Feature","properties":{"id":"airport-lrbv","name":"Bra\u0219ov-Ghimbav International Airport","icao":"LRBV","iata":"GHV","kind":"large_airport"},"geometry":{"type":"Point","coordinates":[25.5229,45.7056]}},{"type":"Feature","properties":{"id":"airport-lrck","name":"Mihail Kog\u0103lniceanu International Airport","icao":"LRCK","iata":"CND","kind":"large_airport"},"geometry":{"type":"Point","coordinates":[28.4883,44.3622]}},{"type":"Feature","properties":{"id":"airport-lrcl","name":"Avram Iancu Cluj International Airport","icao":"LRCL","iata":"CLJ","kind":"large_airport"},"geometry":{"type":"Point","coordinates":[23.6857,46.786]}},{"type":"Feature","properties":{"id":"airport-lrcv","name":"Craiova International Airport","icao":"LRCV","iata":"CRA","kind":"large_airport"},"geometry":{"type":"Point","coordinates":[23.8886,44.3181]}},{"type":"Feature","properties":{"id":"airport-lria","name":"Ia\u015fi International Airport","icao":"LRIA","iata":"IAS","kind":"large_airport"},"geometry":{"type":"Point","coordinates":[27.6214,47.1796]}},{"type":"Feature","properties":{"id":"airport-lrod","name":"Oradea International Airport","icao":"LROD","iata":"OMR","kind":"large_airport"},"geometry":{"type":"Point","coordinates":[21.9025,47.0253]}},{"type":"Feature","properties":{"id":"airport-lrop","name":"Bucharest Henri Coand\u0103 International Airport","icao":"LROP","iata":"OTP","kind":"large_airport"},"geometry":{"type":"Point","coordinates":[26.1033,44.5718]}},{"type":"Feature","properties":{"id":"airport-lrsb","name":"Sibiu International Airport","icao":"LRSB","iata":"SBZ","kind":"large_airport"},"geometry":{"type":"Point","coordinates":[24.0867,45.7858]}},{"type":"Feature","properties":{"id":"airport-lrsm","name":"Satu Mare International Airport","icao":"LRSM","iata":"SUJ","kind":"medium_airport"},"geometry":{"type":"Point","coordinates":[22.8857,47.7033]}},{"type":"Feature","properties":{"id":"airport-lrsv","name":"Suceava \u0218tefan cel Mare International Airport","icao":"LRSV","iata":"SCV","kind":"large_airport"},"geometry":{"type":"Point","coordinates":[26.3541,47.6875]}},{"type":"Feature","properties":{"id":"airport-lrtm","name":"T\u00e2rgu Mure\u015f Transilvania International Airport","icao":"LRTM","iata":"TGM","kind":"medium_airport"},"geometry":{"type":"Point","coordinates":[24.4125,46.4677]}},{"type":"Feature","properties":{"id":"airport-lrtr","name":"Timi\u0219oara Traian Vuia International Airport","icao":"LRTR","iata":"TSR","kind":"large_airport"},"geometry":{"type":"Point","coordinates":[21.3379,45.8099]}},{"type":"Feature","properties":{"id":"airport-ltac","name":"Esenbo\u011fa International Airport","icao":"LTAC","iata":"ESB","kind":"large_airport"},"geometry":{"type":"Point","coordinates":[32.9951,40.1281]}},{"type":"Feature","properties":{"id":"airport-ltai","name":"Antalya International Airport","icao":"LTAI","iata":"AYT","kind":"large_airport"},"geometry":{"type":"Point","coordinates":[30.8005,36.8987]}},{"type":"Feature","properties":{"id":"airport-ltaj","name":"Gaziantep O\u011fuzeli International Airport","icao":"LTAJ","iata":"GZT","kind":"large_airport"},"geometry":{"type":"Point","coordinates":[37.4787,36.9472]}},{"type":"Feature","properties":{"id":"airport-ltal","name":"Kastamonu Airport","icao":"LTAL","iata":"KFS","kind":"medium_airport"},"geometry":{"type":"Point","coordinates":[33.7958,41.3142]}},{"type":"Feature","properties":{"id":"airport-ltan","name":"Konya Airport","icao":"LTAN","iata":"KYA","kind":"large_airport"},"geometry":{"type":"Point","coordinates":[32.5619,37.979]}},{"type":"Feature","properties":{"id":"airport-ltar","name":"Sivas Nuri Demira\u011f Airport","icao":"LTAR","iata":"VAS","kind":"medium_airport"},"geometry":{"type":"Point","coordinates":[36.9035,39.8138]}},{"type":"Feature","properties":{"id":"airport-ltas","name":"Zonguldak \u00c7aycuma Airport","icao":"LTAS","iata":"ONQ","kind":"medium_airport"},"geometry":{"type":"Point","coordinates":[32.0886,41.5064]}},{"type":"Feature","properties":{"id":"airport-ltat","name":"Malatya Erha\u00e7 Airport","icao":"LTAT","iata":"MLX","kind":"medium_airport"},"geometry":{"type":"Point","coordinates":[38.091,38.4353]}},{"type":"Feature","properties":{"id":"airport-ltau","name":"Kayseri Erkilet International Airport","icao":"LTAU","iata":"ASR","kind":"large_airport"},"geometry":{"type":"Point","coordinates":[35.4954,38.7704]}},{"type":"Feature","properties":{"id":"airport-ltaw","name":"Tokat Airport","icao":"LTAW","iata":"TJK","kind":"medium_airport"},"geometry":{"type":"Point","coordinates":[36.3906,40.3247]}},{"type":"Feature","properties":{"id":"airport-ltay","name":"\u00c7ardak Airport","icao":"LTAY","iata":"DNZ","kind":"medium_airport"},"geometry":{"type":"Point","coordinates":[29.7013,37.7856]}},{"type":"Feature","properties":{"id":"airport-ltaz","name":"Nev\u015fehir Kapadokya Airport","icao":"LTAZ","iata":"NAV","kind":"large_airport"},"geometry":{"type":"Point","coordinates":[34.5345,38.7719]}},{"type":"Feature","properties":{"id":"airport-ltbf","name":"Bal\u0131kesir Airport","icao":"LTBF","iata":"BZI","kind":"medium_airport"},"geometry":{"type":"Point","coordinates":[27.926,39.6193]}},{"type":"Feature","properties":{"id":"airport-ltbh","name":"\u00c7anakkale Airport","icao":"LTBH","iata":"CKZ","kind":"medium_airport"},"geometry":{"type":"Point","coordinates":[26.4268,40.1377]}},{"type":"Feature","properties":{"id":"airport-ltbj","name":"Adnan Menderes International Airport","icao":"LTBJ","iata":"ADB","kind":"large_airport"},"geometry":{"type":"Point","coordinates":[27.157,38.2924]}},{"type":"Feature","properties":{"id":"airport-ltbr","name":"Bursa Yeni\u015fehir Airport","icao":"LTBR","iata":"YEI","kind":"medium_airport"},"geometry":{"type":"Point","coordinates":[29.5626,40.2552]}},{"type":"Feature","properties":{"id":"airport-ltbs","name":"Dalaman International Airport","icao":"LTBS","iata":"DLM","kind":"large_airport"},"geometry":{"type":"Point","coordinates":[28.7925,36.7131]}},{"type":"Feature","properties":{"id":"airport-ltbu","name":"Tekirda\u011f \u00c7orlu Airport","icao":"LTBU","iata":"TEQ","kind":"medium_airport"},"geometry":{"type":"Point","coordinates":[27.9191,41.1382]}},{"type":"Feature","properties":{"id":"airport-ltby","name":"Hasan Polatkan Airport","icao":"LTBY","iata":"AOE","kind":"large_airport"},"geometry":{"type":"Point","coordinates":[30.5193,39.8116]}},{"type":"Feature","properties":{"id":"airport-ltca","name":"Elaz\u0131\u011f Airport","icao":"LTCA","iata":"EZS","kind":"medium_airport"},"geometry":{"type":"Point","coordinates":[39.2835,38.598]}},{"type":"Feature","properties":{"id":"airport-ltcb","name":"Ordu\u2013Giresun Airport","icao":"LTCB","iata":"OGU","kind":"medium_airport"},"geometry":{"type":"Point","coordinates":[38.086,40.9669]}},{"type":"Feature","properties":{"id":"airport-ltcc","name":"Diyarbak\u0131r Airport","icao":"LTCC","iata":"DIY","kind":"medium_airport"},"geometry":{"type":"Point","coordinates":[40.201,37.8939]}},{"type":"Feature","properties":{"id":"airport-ltcd","name":"Erzincan Airport","icao":"LTCD","iata":"ERC","kind":"medium_airport"},"geometry":{"type":"Point","coordinates":[39.527,39.7102]}},{"type":"Feature","properties":{"id":"airport-ltce","name":"Erzurum International Airport","icao":"LTCE","iata":"ERZ","kind":"medium_airport"},"geometry":{"type":"Point","coordinates":[41.1702,39.9565]}},{"type":"Feature","properties":{"id":"airport-ltcf","name":"Kars Airport","icao":"LTCF","iata":"KSY","kind":"medium_airport"},"geometry":{"type":"Point","coordinates":[43.115,40.5622]}},{"type":"Feature","properties":{"id":"airport-ltcg","name":"Trabzon International Airport","icao":"LTCG","iata":"TZX","kind":"medium_airport"},"geometry":{"type":"Point","coordinates":[39.7897,40.9951]}},{"type":"Feature","properties":{"id":"airport-ltci","name":"Van Ferit Melen Airport","icao":"LTCI","iata":"VAN","kind":"medium_airport"},"geometry":{"type":"Point","coordinates":[43.3323,38.4682]}},{"type":"Feature","properties":{"id":"airport-ltcj","name":"Batman Airport","icao":"LTCJ","iata":"BAL","kind":"medium_airport"},"geometry":{"type":"Point","coordinates":[41.1166,37.929]}},{"type":"Feature","properties":{"id":"airport-ltck","name":"Mu\u015f Airport","icao":"LTCK","iata":"MSR","kind":"medium_airport"},"geometry":{"type":"Point","coordinates":[41.6612,38.7478]}},{"type":"Feature","properties":{"id":"airport-ltcm","name":"Sinop Airport","icao":"LTCM","iata":"NOP","kind":"medium_airport"},"geometry":{"type":"Point","coordinates":[35.0718,42.0183]}},{"type":"Feature","properties":{"id":"airport-ltcn","name":"Kahramanmara\u015f Airport","icao":"LTCN","iata":"KCM","kind":"medium_airport"},"geometry":{"type":"Point","coordinates":[36.9535,37.5388]}},{"type":"Feature","properties":{"id":"airport-ltco","name":"A\u011fr\u0131 Airport","icao":"LTCO","iata":"AJI","kind":"medium_airport"},"geometry":{"type":"Point","coordinates":[43.0257,39.6556]}},{"type":"Feature","properties":{"id":"airport-ltcp","name":"Ad\u0131yaman Airport","icao":"LTCP","iata":"ADF","kind":"medium_airport"},"geometry":{"type":"Point","coordinates":[38.4689,37.7314]}},{"type":"Feature","properties":{"id":"airport-ltcr","name":"Mardin Airport","icao":"LTCR","iata":"MQM","kind":"medium_airport"},"geometry":{"type":"Point","coordinates":[40.6317,37.2233]}},{"type":"Feature","properties":{"id":"airport-ltcs","name":"\u015eanl\u0131urfa GAP Airport","icao":"LTCS","iata":"GNY","kind":"large_airport"},"geometry":{"type":"Point","coordinates":[38.8956,37.4457]}},{"type":"Feature","properties":{"id":"airport-ltct","name":"I\u011fd\u0131r Airport","icao":"LTCT","iata":"IGD","kind":"medium_airport"},"geometry":{"type":"Point","coordinates":[43.8766,39.9766]}},{"type":"Feature","properties":{"id":"airport-ltcv","name":"\u015e\u0131rnak \u015eerafettin El\u00e7i Airport","icao":"LTCV","iata":"NKT","kind":"medium_airport"},"geometry":{"type":"Point","coordinates":[42.0582,37.3647]}},{"type":"Feature","properties":{"id":"airport-ltcw","name":"Hakkari Y\u00fcksekova Airport","icao":"LTCW","iata":"YKO","kind":"medium_airport"},"geometry":{"type":"Point","coordinates":[44.2381,37.5497]}},{"type":"Feature","properties":{"id":"airport-ltda","name":"Hatay Airport","icao":"LTDA","iata":"HTY","kind":"medium_airport"},"geometry":{"type":"Point","coordinates":[36.2856,36.3608]}},{"type":"Feature","properties":{"id":"airport-ltdb","name":"\u00c7ukurova International Airport","icao":"LTDB","iata":"COV","kind":"large_airport"},"geometry":{"type":"Point","coordinates":[35.0712,36.8915]}},{"type":"Feature","properties":{"id":"airport-ltfc","name":"S\u00fcleyman Demirel International Airport","icao":"LTFC","iata":"ISE","kind":"medium_airport"},"geometry":{"type":"Point","coordinates":[30.3684,37.8554]}},{"type":"Feature","properties":{"id":"airport-ltfd","name":"Bal\u0131kesir Koca Seyit Airport","icao":"LTFD","iata":"EDO","kind":"large_airport"},"geometry":{"type":"Point","coordinates":[27.0102,39.5525]}},{"type":"Feature","properties":{"id":"airport-ltfe","name":"Milas Bodrum International Airport","icao":"LTFE","iata":"BJV","kind":"large_airport"},"geometry":{"type":"Point","coordinates":[27.664,37.2493]}},{"type":"Feature","properties":{"id":"airport-ltfg","name":"Gazipa\u015fa-Alanya Airport","icao":"LTFG","iata":"GZP","kind":"medium_airport"},"geometry":{"type":"Point","coordinates":[32.297,36.2988]}},{"type":"Feature","properties":{"id":"airport-ltfh","name":"Samsun-\u00c7ar\u015famba Airport","icao":"LTFH","iata":"SZF","kind":"medium_airport"},"geometry":{"type":"Point","coordinates":[36.5675,41.254]}},{"type":"Feature","properties":{"id":"airport-ltfj","name":"Istanbul Sabiha G\u00f6k\u00e7en International Airport","icao":"LTFJ","iata":"SAW","kind":"large_airport"},"geometry":{"type":"Point","coordinates":[29.3092,40.8986]}},{"type":"Feature","properties":{"id":"airport-ltfm","name":"\u0130stanbul Airport","icao":"LTFM","iata":"IST","kind":"large_airport"},"geometry":{"type":"Point","coordinates":[28.7321,41.2749]}},{"type":"Feature","properties":{"id":"airport-ltfo","name":"Rize\u2013Artvin Airport","icao":"LTFO","iata":"RZV","kind":"large_airport"},"geometry":{"type":"Point","coordinates":[40.8488,41.1798]}},{"type":"Feature","properties":{"id":"airport-lukk","name":"Chi\u015fin\u0103u International Airport","icao":"LUKK","iata":"RMO","kind":"large_airport"},"geometry":{"type":"Point","coordinates":[28.9317,46.9277]}},{"type":"Feature","properties":{"id":"airport-lwoh","name":"Ohrid St. Paul the Apostle Airport","icao":"LWOH","iata":"OHD","kind":"large_airport"},"geometry":{"type":"Point","coordinates":[20.7423,41.18]}},{"type":"Feature","properties":{"id":"airport-lwsk","name":"Skopje International Airport","icao":"LWSK","iata":"SKP","kind":"large_airport"},"geometry":{"type":"Point","coordinates":[21.6226,41.9581]}},{"type":"Feature","properties":{"id":"airport-lybe","name":"Belgrade Nikola Tesla Airport","icao":"LYBE","iata":"BEG","kind":"large_airport"},"geometry":{"type":"Point","coordinates":[20.3091,44.8184]}},{"type":"Feature","properties":{"id":"airport-lykv","name":"Morava Airport","icao":"LYKV","iata":"KVO","kind":"medium_airport"},"geometry":{"type":"Point","coordinates":[20.5867,43.8175]}},{"type":"Feature","properties":{"id":"airport-lyni","name":"Ni\u0161 Constantine the Great Airport","icao":"LYNI","iata":"INI","kind":"large_airport"},"geometry":{"type":"Point","coordinates":[21.8562,43.3365]}},{"type":"Feature","properties":{"id":"airport-lypg","name":"Podgorica Airport / Podgorica Golubovci Airbase","icao":"LYPG","iata":"TGD","kind":"large_airport"},"geometry":{"type":"Point","coordinates":[19.2519,42.3594]}},{"type":"Feature","properties":{"id":"airport-lytv","name":"Tivat Airport","icao":"LYTV","iata":"TIV","kind":"medium_airport"},"geometry":{"type":"Point","coordinates":[18.7233,42.4047]}},{"type":"Feature","properties":{"id":"airport-lzib","name":"M. R. \u0160tef\u00e1nik Airport","icao":"LZIB","iata":"BTS","kind":"large_airport"},"geometry":{"type":"Point","coordinates":[17.2127,48.1702]}},{"type":"Feature","properties":{"id":"airport-lzkz","name":"Ko\u0161ice International Airport","icao":"LZKZ","iata":"KSC","kind":"medium_airport"},"geometry":{"type":"Point","coordinates":[21.2411,48.6631]}},{"type":"Feature","properties":{"id":"airport-lzsl","name":"Slia\u010d Airport","icao":"LZSL","iata":"SLD","kind":"medium_airport"},"geometry":{"type":"Point","coordinates":[19.1341,48.6378]}},{"type":"Feature","properties":{"id":"airport-lztt","name":"Poprad-Tatry Airport","icao":"LZTT","iata":"TAT","kind":"medium_airport"},"geometry":{"type":"Point","coordinates":[20.2414,49.071]}},{"type":"Feature","properties":{"id":"airport-oigg","name":"Sardar-e-Jangal Airport","icao":"OIGG","iata":"RAS","kind":"medium_airport"},"geometry":{"type":"Point","coordinates":[49.6178,37.3233]}},{"type":"Feature","properties":{"id":"airport-oitl","name":"Ardabil Airport","icao":"OITL","iata":"ADU","kind":"medium_airport"},"geometry":{"type":"Point","coordinates":[48.4244,38.3257]}},{"type":"Feature","properties":{"id":"airport-oitr","name":"Urmia Airport","icao":"OITR","iata":"OMH","kind":"medium_airport"},"geometry":{"type":"Point","coordinates":[45.0687,37.6681]}},{"type":"Feature","properties":{"id":"airport-oitt","name":"Tabriz International Airport","icao":"OITT","iata":"TBZ","kind":"large_airport"},"geometry":{"type":"Point","coordinates":[46.235,38.1339]}},{"type":"Feature","properties":{"id":"airport-orer","name":"Erbil International Airport","icao":"ORER","iata":"EBL","kind":"large_airport"},"geometry":{"type":"Point","coordinates":[43.9466,36.236]}},{"type":"Feature","properties":{"id":"airport-osap","name":"Aleppo International Airport","icao":"OSAP","iata":"ALP","kind":"large_airport"},"geometry":{"type":"Point","coordinates":[37.2269,36.1813]}},{"type":"Feature","properties":{"id":"airport-oskl","name":"Qamishli International Airport","icao":"OSKL","iata":"KAC","kind":"medium_airport"},"geometry":{"type":"Point","coordinates":[41.1914,37.0206]}},{"type":"Feature","properties":{"id":"airport-ubbg","name":"Ganja International Airport","icao":"UBBG","iata":"GNJ","kind":"large_airport"},"geometry":{"type":"Point","coordinates":[46.3204,40.7387]}},{"type":"Feature","properties":{"id":"airport-ubbn","name":"Nakhchivan International Airport","icao":"UBBN","iata":"NAJ","kind":"large_airport"},"geometry":{"type":"Point","coordinates":[45.4584,39.1888]}},{"type":"Feature","properties":{"id":"airport-ubbq","name":"Gabala International Airport","icao":"UBBQ","iata":"GBB","kind":"medium_airport"},"geometry":{"type":"Point","coordinates":[47.7254,40.8086]}},{"type":"Feature","properties":{"id":"airport-ublc","name":"Lachin International Airport","icao":"UBLC","iata":"LHL","kind":"medium_airport"},"geometry":{"type":"Point","coordinates":[46.3631,39.8838]}},{"type":"Feature","properties":{"id":"airport-udsg","name":"Shirak International Airport","icao":"UDSG","iata":"LWN","kind":"large_airport"},"geometry":{"type":"Point","coordinates":[43.8593,40.7504]}},{"type":"Feature","properties":{"id":"airport-udyz","name":"Zvartnots International Airport","icao":"UDYZ","iata":"EVN","kind":"large_airport"},"geometry":{"type":"Point","coordinates":[44.3979,40.1489]}},{"type":"Feature","properties":{"id":"airport-ugam","name":"Ambrolauri Airport","icao":"UGAM","iata":"","kind":"medium_airport"},"geometry":{"type":"Point","coordinates":[43.1354,42.5269]}},{"type":"Feature","properties":{"id":"airport-ugko","name":"David the Builder Kutaisi International Airport","icao":"UGKO","iata":"KUT","kind":"large_airport"},"geometry":{"type":"Point","coordinates":[42.4854,42.1774]}},{"type":"Feature","properties":{"id":"airport-ugsb","name":"Alexander Kartveli Batumi International Airport","icao":"UGSB","iata":"BUS","kind":"large_airport"},"geometry":{"type":"Point","coordinates":[41.6003,41.6094]}},{"type":"Feature","properties":{"id":"airport-ugss","name":"Vladislav Ardzinba Sukhum International Airport","icao":"UGSS","iata":"SUI","kind":"medium_airport"},"geometry":{"type":"Point","coordinates":[41.1281,42.8582]}},{"type":"Feature","properties":{"id":"airport-ugtb","name":"Tbilisi International Airport","icao":"UGTB","iata":"TBS","kind":"large_airport"},"geometry":{"type":"Point","coordinates":[44.9547,41.6692]}},{"type":"Feature","properties":{"id":"airport-ukcm","name":"Mariupol International Airport","icao":"UKCM","iata":"MPW","kind":"medium_airport"},"geometry":{"type":"Point","coordinates":[37.4496,47.0761]}},{"type":"Feature","properties":{"id":"airport-ukdd","name":"Dnipro International Airport","icao":"UKDD","iata":"DNK","kind":"medium_airport"},"geometry":{"type":"Point","coordinates":[35.1006,48.3572]}},{"type":"Feature","properties":{"id":"airport-ukdr","name":"Kryvyi Rih International Airport","icao":"UKDR","iata":"KWG","kind":"medium_airport"},"geometry":{"type":"Point","coordinates":[33.21,48.0433]}},{"type":"Feature","properties":{"id":"airport-ukff","name":"Simferopol International Airport","icao":"UKFF","iata":"SIP","kind":"large_airport"},"geometry":{"type":"Point","coordinates":[33.9751,45.0522]}},{"type":"Feature","properties":{"id":"airport-ukli","name":"Ivano-Frankivsk International Airport","icao":"UKLI","iata":"IFO","kind":"medium_airport"},"geometry":{"type":"Point","coordinates":[24.6861,48.8842]}},{"type":"Feature","properties":{"id":"airport-ukll","name":"Lviv International Airport","icao":"UKLL","iata":"LWO","kind":"large_airport"},"geometry":{"type":"Point","coordinates":[23.9561,49.8125]}},{"type":"Feature","properties":{"id":"airport-ukln","name":"Chernivtsi International Airport","icao":"UKLN","iata":"CWC","kind":"medium_airport"},"geometry":{"type":"Point","coordinates":[25.9808,48.2593]}},{"type":"Feature","properties":{"id":"airport-uklr","name":"Rivne International Airport","icao":"UKLR","iata":"RWN","kind":"medium_airport"},"geometry":{"type":"Point","coordinates":[26.1416,50.6071]}},{"type":"Feature","properties":{"id":"airport-uklu","name":"Uzhhorod International Airport","icao":"UKLU","iata":"UDJ","kind":"large_airport"},"geometry":{"type":"Point","coordinates":[22.2634,48.6343]}},{"type":"Feature","properties":{"id":"airport-ukoh","name":"Kherson International Airport","icao":"UKOH","iata":"KHE","kind":"medium_airport"},"geometry":{"type":"Point","coordinates":[32.5064,46.6758]}},{"type":"Feature","properties":{"id":"airport-umbb","name":"Brest International Airport","icao":"UMBB","iata":"BQT","kind":"large_airport"},"geometry":{"type":"Point","coordinates":[23.8968,52.1081]}},{"type":"Feature","properties":{"id":"airport-umgg","name":"Gomel Airport","icao":"UMGG","iata":"GME","kind":"medium_airport"},"geometry":{"type":"Point","coordinates":[31.0167,52.527]}},{"type":"Feature","properties":{"id":"airport-umkk","name":"Khrabrovo Airport","icao":"UMKK","iata":"KGD","kind":"large_airport"},"geometry":{"type":"Point","coordinates":[20.5986,54.8916]}},{"type":"Feature","properties":{"id":"airport-umms","name":"Minsk National Airport","icao":"UMMS","iata":"MSQ","kind":"large_airport"},"geometry":{"type":"Point","coordinates":[28.04,53.8881]}},{"type":"Feature","properties":{"id":"airport-umoo","name":"Mogilev Airport","icao":"UMOO","iata":"MVQ","kind":"medium_airport"},"geometry":{"type":"Point","coordinates":[30.0951,53.9549]}},{"type":"Feature","properties":{"id":"airport-urka","name":"Anapa Vityazevo Airport","icao":"URKA","iata":"AAQ","kind":"medium_airport"},"geometry":{"type":"Point","coordinates":[37.3473,45.0021]}},{"type":"Feature","properties":{"id":"airport-urkg","name":"Gelendzhik Airport","icao":"URKG","iata":"GDZ","kind":"medium_airport"},"geometry":{"type":"Point","coordinates":[38.0125,44.5821]}},{"type":"Feature","properties":{"id":"airport-urkk","name":"Krasnodar Pashkovsky International Airport","icao":"URKK","iata":"KRR","kind":"large_airport"},"geometry":{"type":"Point","coordinates":[39.1742,45.0345]}},{"type":"Feature","properties":{"id":"airport-urmg","name":"Akhmat Kadyrov Grozny International Airport","icao":"URMG","iata":"GRV","kind":"large_airport"},"geometry":{"type":"Point","coordinates":[45.6998,43.3881]}},{"type":"Feature","properties":{"id":"airport-urml","name":"Makhachkala Uytash International Airport","icao":"URML","iata":"MCX","kind":"large_airport"},"geometry":{"type":"Point","coordinates":[47.6523,42.8168]}},{"type":"Feature","properties":{"id":"airport-urmm","name":"Mineralnye Vody Airport","icao":"URMM","iata":"MRV","kind":"large_airport"},"geometry":{"type":"Point","coordinates":[43.0819,44.2251]}},{"type":"Feature","properties":{"id":"airport-urmn","name":"Nalchik Airport","icao":"URMN","iata":"NAL","kind":"medium_airport"},"geometry":{"type":"Point","coordinates":[43.6366,43.5129]}},{"type":"Feature","properties":{"id":"airport-urmo","name":"Vladikavkaz Beslan International Airport","icao":"URMO","iata":"OGZ","kind":"medium_airport"},"geometry":{"type":"Point","coordinates":[44.6066,43.2051]}},{"type":"Feature","properties":{"id":"airport-urms","name":"Magas Airport","icao":"URMS","iata":"IGT","kind":"medium_airport"},"geometry":{"type":"Point","coordinates":[45.0126,43.3233]}},{"type":"Feature","properties":{"id":"airport-urmt","name":"Stavropol Shpakovskoye Airport","icao":"URMT","iata":"STW","kind":"medium_airport"},"geometry":{"type":"Point","coordinates":[42.1128,45.1092]}},{"type":"Feature","properties":{"id":"airport-urrp","name":"Platov International Airport","icao":"URRP","iata":"ROV","kind":"large_airport"},"geometry":{"type":"Point","coordinates":[39.9247,47.4939]}},{"type":"Feature","properties":{"id":"airport-urrt","name":"Taganrog Yuzhny Airport","icao":"URRT","iata":"TGK","kind":"medium_airport"},"geometry":{"type":"Point","coordinates":[38.8492,47.1983]}},{"type":"Feature","properties":{"id":"airport-urss","name":"Sochi International Airport","icao":"URSS","iata":"AER","kind":"large_airport"},"geometry":{"type":"Point","coordinates":[39.9566,43.4499]}},{"type":"Feature","properties":{"id":"airport-urwa","name":"Astrakhan Narimanovo Boris M. Kustodiev International Airport","icao":"URWA","iata":"ASF","kind":"large_airport"},"geometry":{"type":"Point","coordinates":[48.0105,46.2828]}},{"type":"Feature","properties":{"id":"airport-urwi","name":"Elista Airport","icao":"URWI","iata":"ESL","kind":"medium_airport"},"geometry":{"type":"Point","coordinates":[44.3309,46.3739]}},{"type":"Feature","properties":{"id":"airport-urww","name":"Volgograd International Airport","icao":"URWW","iata":"VOG","kind":"large_airport"},"geometry":{"type":"Point","coordinates":[44.3392,48.7813]}},{"type":"Feature","properties":{"id":"airport-uubp","name":"Bryansk International Airport","icao":"UUBP","iata":"BZK","kind":"medium_airport"},"geometry":{"type":"Point","coordinates":[34.176,53.2144]}},{"type":"Feature","properties":{"id":"airport-uubw","name":"Zhukovsky International Airport","icao":"UUBW","iata":"ZIA","kind":"large_airport"},"geometry":{"type":"Point","coordinates":[38.15,55.5533]}},{"type":"Feature","properties":{"id":"airport-uudd","name":"Domodedovo International Airport","icao":"UUDD","iata":"DME","kind":"large_airport"},"geometry":{"type":"Point","coordinates":[37.9063,55.4088]}},{"type":"Feature","properties":{"id":"airport-uuee","name":"Sheremetyevo International Airport","icao":"UUEE","iata":"SVO","kind":"large_airport"},"geometry":{"type":"Point","coordinates":[37.4112,55.9769]}},{"type":"Feature","properties":{"id":"airport-uuob","name":"Belgorod International Airport","icao":"UUOB","iata":"EGO","kind":"medium_airport"},"geometry":{"type":"Point","coordinates":[36.5901,50.6438]}},{"type":"Feature","properties":{"id":"airport-uuok","name":"Kursk East Airport","icao":"UUOK","iata":"URS","kind":"medium_airport"},"geometry":{"type":"Point","coordinates":[36.2956,51.7506]}},{"type":"Feature","properties":{"id":"airport-uuol","name":"Lipetsk Airport","icao":"UUOL","iata":"LPK","kind":"medium_airport"},"geometry":{"type":"Point","coordinates":[39.5378,52.7028]}},{"type":"Feature","properties":{"id":"airport-uuoo","name":"Voronezh International Airport","icao":"UUOO","iata":"VOZ","kind":"medium_airport"},"geometry":{"type":"Point","coordinates":[39.2309,51.8143]}},{"type":"Feature","properties":{"id":"airport-uuww","name":"Vnukovo International Airport","icao":"UUWW","iata":"VKO","kind":"large_airport"},"geometry":{"type":"Point","coordinates":[37.2615,55.5915]}},{"type":"Feature","properties":{"id":"airport-uwkd","name":"Kazan International Airport","icao":"UWKD","iata":"KZN","kind":"large_airport"},"geometry":{"type":"Point","coordinates":[49.2787,55.6062]}},{"type":"Feature","properties":{"id":"airport-uwll","name":"Ulyanovsk Baratayevka Airport","icao":"UWLL","iata":"ULV","kind":"medium_airport"},"geometry":{"type":"Point","coordinates":[48.2256,54.2702]}},{"type":"Feature","properties":{"id":"airport-uwlw","name":"Ulyanovsk Vostochny Airport","icao":"UWLW","iata":"ULY","kind":"medium_airport"},"geometry":{"type":"Point","coordinates":[48.8027,54.401]}},{"type":"Feature","properties":{"id":"airport-uwpp","name":"Penza Airport","icao":"UWPP","iata":"PEZ","kind":"medium_airport"},"geometry":{"type":"Point","coordinates":[45.0211,53.1106]}},{"type":"Feature","properties":{"id":"airport-uwps","name":"Saransk International Airport","icao":"UWPS","iata":"SKX","kind":"large_airport"},"geometry":{"type":"Point","coordinates":[45.2123,54.1251]}},{"type":"Feature","properties":{"id":"airport-uwsb","name":"Balakovo Airport","icao":"UWSB","iata":"BWO","kind":"medium_airport"},"geometry":{"type":"Point","coordinates":[47.7456,51.8583]}},{"type":"Feature","properties":{"id":"airport-uwsg","name":"Gagarin International Airport","icao":"UWSG","iata":"GSV","kind":"large_airport"},"geometry":{"type":"Point","coordinates":[46.1711,51.7128]}}]}