{"type":"FeatureCollection","note":"Natural Earth physical. Shared by every scenario regardless of era.","features":[{"type":"Feature","properties":{"name":"Panama Canal"},"geometry":{"type":"MultiLineString","coordinates":[[[-79.691,9.104],[-79.756,9.112],[-79.814,9.153],[-79.923,9.267]]]}},{"type":"Feature","properties":{"name":"Suez Canal"},"geometry":{"type":"MultiLineString","coordinates":[[[32.561,30.181],[32.36,30.424]]]}},{"type":"Feature","properties":{"name":"Panama Canal"},"geometry":{"type":"MultiLineString","coordinates":[[[-79.691,9.104],[-79.566,8.968],[-79.552,8.924]],[[-79.923,9.267],[-79.927,9.304],[-79.915,9.361]]]}},{"type":"Feature","properties":{"name":"Suez Canal"},"geometry":{"type":"MultiLineString","coordinates":[[[32.561,30.182],[32.566,29.974]],[[32.36,30.424],[32.303,30.593],[32.334,30.689],[32.337,30.859],[32.324,31.256]]]}}]}