{"type":"FeatureCollection","features":[{"type":"Feature","properties":{"id":"chokepoint-bosphorus","name":"Bosphorus","kind":"strait"},"geometry":{"type":"LineString","coordinates":[[29.0,40.99],[29.08,41.2]]}},{"type":"Feature","properties":{"id":"gauge-break:pol-subcarpathianvoivodeship:ukr-zakarpattiaoblast","name":"Gauge break","kind":"gauge_break","gauge_from":1435,"gauge_to":1520},"geometry":{"type":"Point","coordinates":[22.6069,49.2042]}},{"type":"Feature","properties":{"id":"gauge-break:pol-subcarpathianvoivodeship:ukr-lvivoblast","name":"Gauge break","kind":"gauge_break","gauge_from":1435,"gauge_to":1520},"geometry":{"type":"Point","coordinates":[23.0376,49.7978]}},{"type":"Feature","properties":{"id":"gauge-break:pol-podlaskievoivodeship:rus-northwestern","name":"Gauge break","kind":"gauge_break","gauge_from":1435,"gauge_to":1520},"geometry":{"type":"Point","coordinates":[33.3604,54.2885]}},{"type":"Feature","properties":{"id":"gauge-break:pol-pomeranianvoivodeship:rus-northwestern","name":"Gauge break","kind":"gauge_break","gauge_from":1435,"gauge_to":1520},"geometry":{"type":"Point","coordinates":[31.0064,54.6974]}},{"type":"Feature","properties":{"id":"gauge-break:pol-lublinvoivodeship:ukr-lvivoblast","name":"Gauge break","kind":"gauge_break","gauge_from":1435,"gauge_to":1520},"geometry":{"type":"Point","coordinates":[23.3376,50.477]}},{"type":"Feature","properties":{"id":"gauge-break:pol-lublinvoivodeship:ukr-volynoblast","name":"Gauge break","kind":"gauge_break","gauge_from":1435,"gauge_to":1520},"geometry":{"type":"Point","coordinates":[23.8575,51.199]}},{"type":"Feature","properties":{"id":"gauge-break:pol-warmianmasurianvoivodeship:rus-northwestern","name":"Gauge break","kind":"gauge_break","gauge_from":1435,"gauge_to":1520},"geometry":{"type":"Point","coordinates":[32.5553,54.5111]}},{"type":"Feature","properties":{"id":"gauge-break:rou-nordest:ukr-chernivtsioblast","name":"Gauge break","kind":"gauge_break","gauge_from":1435,"gauge_to":1520},"geometry":{"type":"Point","coordinates":[26.2157,47.6674]}},{"type":"Feature","properties":{"id":"gauge-break:rou-nordvest:ukr-zakarpattiaoblast","name":"Gauge break","kind":"gauge_break","gauge_from":1435,"gauge_to":1520},"geometry":{"type":"Point","coordinates":[23.2529,47.8748]}},{"type":"Feature","properties":{"id":"gauge-break:rou-sudest:ukr-odessaoblast","name":"Gauge break","kind":"gauge_break","gauge_from":1435,"gauge_to":1520},"geometry":{"type":"Point","coordinates":[29.3378,45.8069]}}]}