{"type":"FeatureCollection","note":"GeoNames CC BY 4.0. 1\u20133 cities per province.","features":[{"type":"Feature","properties":{"id":"city-rzeszow-pol-subcarpathianvoivodeship","name":"Rzesz\u00f3w","province_id":"pol-subcarpathianvoivodeship","iso3":"POL","population":198317,"seat":true},"geometry":{"type":"Point","coordinates":[21.999,50.0413]}},{"type":"Feature","properties":{"id":"city-bialystok-pol-podlaskievoivodeship","name":"Bia\u0142ystok","province_id":"pol-podlaskievoivodeship","iso3":"POL","population":295683,"seat":true},"geometry":{"type":"Point","coordinates":[23.1643,53.1333]}},{"type":"Feature","properties":{"id":"city-lodz-pol-lodzvoivodeship","name":"\u0141\u00f3d\u017a","province_id":"pol-lodzvoivodeship","iso3":"POL","population":639890,"seat":true},"geometry":{"type":"Point","coordinates":[19.4739,51.7706]}},{"type":"Feature","properties":{"id":"city-wroclaw-pol-lowersilesianvoivodeship","name":"Wroc\u0142aw","province_id":"pol-lowersilesianvoivodeship","iso3":"POL","population":672545,"seat":true},"geometry":{"type":"Point","coordinates":[17.0301,51.1029]}},{"type":"Feature","properties":{"id":"city-walbrzych-pol-lowersilesianvoivodeship","name":"Wa\u0142brzych","province_id":"pol-lowersilesianvoivodeship","iso3":"POL","population":127431,"seat":false},"geometry":{"type":"Point","coordinates":[16.2843,50.7714]}},{"type":"Feature","properties":{"id":"city-legnica-pol-lowersilesianvoivodeship","name":"Legnica","province_id":"pol-lowersilesianvoivodeship","iso3":"POL","population":106033,"seat":false},"geometry":{"type":"Point","coordinates":[16.1619,51.2101]}},{"type":"Feature","properties":{"id":"city-opole-pol-opolevoivodeship","name":"Opole","province_id":"pol-opolevoivodeship","iso3":"POL","population":127676,"seat":true},"geometry":{"type":"Point","coordinates":[17.926,50.6712]}},{"type":"Feature","properties":{"id":"city-kielce-pol-swietokrzyskievoivodeship","name":"Kielce","province_id":"pol-swietokrzyskievoivodeship","iso3":"POL","population":192468,"seat":true},"geometry":{"type":"Point","coordinates":[20.6275,50.8703]}},{"type":"Feature","properties":{"id":"city-warsaw-pol-masovianvoivodeship","name":"Warsaw","province_id":"pol-masovianvoivodeship","iso3":"POL","population":1702139,"seat":true},"geometry":{"type":"Point","coordinates":[21.0118,52.2298]}},{"type":"Feature","properties":{"id":"city-mokotow-pol-masovianvoivodeship","name":"Mokot\u00f3w","province_id":"pol-masovianvoivodeship","iso3":"POL","population":217683,"seat":false},"geometry":{"type":"Point","coordinates":[21.0349,52.1934]}},{"type":"Feature","properties":{"id":"city-pragapoludnie-pol-masovianvoivodeship","name":"Praga Po\u0142udnie","province_id":"pol-masovianvoivodeship","iso3":"POL","population":179836,"seat":false},"geometry":{"type":"Point","coordinates":[21.0855,52.2442]}},{"type":"Feature","properties":{"id":"city-poznan-pol-greaterpolandvoivodeship","name":"Pozna\u0144","province_id":"pol-greaterpolandvoivodeship","iso3":"POL","population":536151,"seat":true},"geometry":{"type":"Point","coordinates":[16.9299,52.4069]}},{"type":"Feature","properties":{"id":"city-kalisz-pol-greaterpolandvoivodeship","name":"Kalisz","province_id":"pol-greaterpolandvoivodeship","iso3":"POL","population":108759,"seat":false},"geometry":{"type":"Point","coordinates":[18.091,51.7611]}},{"type":"Feature","properties":{"id":"city-konin-pol-greaterpolandvoivodeship","name":"Konin","province_id":"pol-greaterpolandvoivodeship","iso3":"POL","population":81258,"seat":false},"geometry":{"type":"Point","coordinates":[18.2512,52.2234]}},{"type":"Feature","properties":{"id":"city-krakow-pol-lesserpolandvoivodeship","name":"Krak\u00f3w","province_id":"pol-lesserpolandvoivodeship","iso3":"POL","population":816614,"seat":true},"geometry":{"type":"Point","coordinates":[19.9366,50.0614]}},{"type":"Feature","properties":{"id":"city-nowysacz-pol-lesserpolandvoivodeship","name":"Nowy S\u0105cz","province_id":"pol-lesserpolandvoivodeship","iso3":"POL","population":84376,"seat":false},"geometry":{"type":"Point","coordinates":[20.6971,49.6218]}},{"type":"Feature","properties":{"id":"city-zielonagora-pol-lubuszvoivodeship","name":"Zielona G\u00f3ra","province_id":"pol-lubuszvoivodeship","iso3":"POL","population":118433,"seat":true},"geometry":{"type":"Point","coordinates":[15.5064,51.9355]}},{"type":"Feature","properties":{"id":"city-bydgoszcz-pol-kuyavianpomeranianvoivodeship","name":"Bydgoszcz","province_id":"pol-kuyavianpomeranianvoivodeship","iso3":"POL","population":330038,"seat":true},"geometry":{"type":"Point","coordinates":[18.0076,53.1235]}},{"type":"Feature","properties":{"id":"city-torun-pol-kuyavianpomeranianvoivodeship","name":"Toru\u0144","province_id":"pol-kuyavianpomeranianvoivodeship","iso3":"POL","population":196935,"seat":false},"geometry":{"type":"Point","coordinates":[18.5981,53.0138]}},{"type":"Feature","properties":{"id":"city-grudziadz-pol-kuyavianpomeranianvoivodeship","name":"Grudzi\u0105dz","province_id":"pol-kuyavianpomeranianvoivodeship","iso3":"POL","population":92552,"seat":false},"geometry":{"type":"Point","coordinates":[18.7537,53.4841]}},{"type":"Feature","properties":{"id":"city-gdansk-pol-pomeranianvoivodeship","name":"Gda\u0144sk","province_id":"pol-pomeranianvoivodeship","iso3":"POL","population":487371,"seat":true},"geometry":{"type":"Point","coordinates":[18.6491,54.3523]}},{"type":"Feature","properties":{"id":"city-gdynia-pol-pomeranianvoivodeship","name":"Gdynia","province_id":"pol-pomeranianvoivodeship","iso3":"POL","population":257000,"seat":false},"geometry":{"type":"Point","coordinates":[18.5319,54.5189]}},{"type":"Feature","properties":{"id":"city-szczecin-pol-westpomeranianvoivodeship","name":"Szczecin","province_id":"pol-westpomeranianvoivodeship","iso3":"POL","population":395513,"seat":true},"geometry":{"type":"Point","coordinates":[14.553,53.4289]}},{"type":"Feature","properties":{"id":"city-lublin-pol-lublinvoivodeship","name":"Lublin","province_id":"pol-lublinvoivodeship","iso3":"POL","population":336339,"seat":true},"geometry":{"type":"Point","coordinates":[22.5701,51.2506]}},{"type":"Feature","properties":{"id":"city-olsztyn-pol-warmianmasurianvoivodeship","name":"Olsztyn","province_id":"pol-warmianmasurianvoivodeship","iso3":"POL","population":169793,"seat":true},"geometry":{"type":"Point","coordinates":[20.4927,53.7838]}},{"type":"Feature","properties":{"id":"city-katowice-pol-silesianvoivodeship","name":"Katowice","province_id":"pol-silesianvoivodeship","iso3":"POL","population":286960,"seat":true},"geometry":{"type":"Point","coordinates":[19.0217,50.2597]}},{"type":"Feature","properties":{"id":"city-czestochowa-pol-silesianvoivodeship","name":"Cz\u0119stochowa","province_id":"pol-silesianvoivodeship","iso3":"POL","population":248125,"seat":false},"geometry":{"type":"Point","coordinates":[19.1241,50.7965]}},{"type":"Feature","properties":{"id":"city-sosnowiec-pol-silesianvoivodeship","name":"Sosnowiec","province_id":"pol-silesianvoivodeship","iso3":"POL","population":227295,"seat":false},"geometry":{"type":"Point","coordinates":[19.1039,50.2868]}},{"type":"Feature","properties":{"id":"city-brasov-rou-centru","name":"Bra\u015fov","province_id":"rou-centru","iso3":"ROU","population":253200,"seat":true},"geometry":{"type":"Point","coordinates":[25.6061,45.6486]}},{"type":"Feature","properties":{"id":"city-timisoara-rou-vest","name":"Timi\u015foara","province_id":"rou-vest","iso3":"ROU","population":250849,"seat":true},"geometry":{"type":"Point","coordinates":[21.2257,45.7537]}},{"type":"Feature","properties":{"id":"city-ploiesti-rou-sudmuntenia","name":"Ploie\u015fti","province_id":"rou-sudmuntenia","iso3":"ROU","population":180540,"seat":true},"geometry":{"type":"Point","coordinates":[26.0167,44.95]}},{"type":"Feature","properties":{"id":"city-iasi-rou-nordest","name":"Ia\u015fi","province_id":"rou-nordest","iso3":"ROU","population":378954,"seat":true},"geometry":{"type":"Point","coordinates":[27.6,47.1667]}},{"type":"Feature","properties":{"id":"city-clujnapoca-rou-nordvest","name":"Cluj-Napoca","province_id":"rou-nordvest","iso3":"ROU","population":286598,"seat":true},"geometry":{"type":"Point","coordinates":[23.6,46.7667]}},{"type":"Feature","properties":{"id":"city-constanta-rou-sudest","name":"Constan\u0163a","province_id":"rou-sudest","iso3":"ROU","population":317832,"seat":true},"geometry":{"type":"Point","coordinates":[28.6343,44.1807]}},{"type":"Feature","properties":{"id":"city-craiova-rou-sudvestoltenia","name":"Craiova","province_id":"rou-sudvestoltenia","iso3":"ROU","population":234140,"seat":true},"geometry":{"type":"Point","coordinates":[23.8,44.3167]}},{"type":"Feature","properties":{"id":"city-bucharest-rou-bucurestiilfov","name":"Bucharest","province_id":"rou-bucurestiilfov","iso3":"ROU","population":1877155,"seat":true},"geometry":{"type":"Point","coordinates":[26.1063,44.4323]}},{"type":"Feature","properties":{"id":"city-sector3-rou-bucurestiilfov","name":"Sector 3","province_id":"rou-bucurestiilfov","iso3":"ROU","population":385439,"seat":false},"geometry":{"type":"Point","coordinates":[26.1687,44.4234]}},{"type":"Feature","properties":{"id":"city-sector6-rou-bucurestiilfov","name":"Sector 6","province_id":"rou-bucurestiilfov","iso3":"ROU","population":367760,"seat":false},"geometry":{"type":"Point","coordinates":[26.0165,44.4358]}},{"type":"Feature","properties":{"id":"city-kherson-ukr-khersonoblast","name":"Kherson","province_id":"ukr-khersonoblast","iso3":"UKR","population":66000,"seat":true},"geometry":{"type":"Point","coordinates":[32.6146,46.6369]}},{"type":"Feature","properties":{"id":"city-lutsk-ukr-volynoblast","name":"Lutsk","province_id":"ukr-volynoblast","iso3":"UKR","population":215986,"seat":true},"geometry":{"type":"Point","coordinates":[25.3502,50.7578]}},{"type":"Feature","properties":{"id":"city-rivne-ukr-rivneoblast","name":"Rivne","province_id":"ukr-rivneoblast","iso3":"UKR","population":243873,"seat":true},"geometry":{"type":"Point","coordinates":[26.237,50.6204]}},{"type":"Feature","properties":{"id":"city-zhytomyr-ukr-zhytomyroblast","name":"Zhytomyr","province_id":"ukr-zhytomyroblast","iso3":"UKR","population":261624,"seat":true},"geometry":{"type":"Point","coordinates":[28.6791,50.2623]}},{"type":"Feature","properties":{"id":"city-bohuniya-ukr-zhytomyroblast","name":"Bohuniya","province_id":"ukr-zhytomyroblast","iso3":"UKR","population":147324,"seat":false},"geometry":{"type":"Point","coordinates":[28.6096,50.2769]}},{"type":"Feature","properties":{"id":"city-korolyov-ukr-zhytomyroblast","name":"Korolyov","province_id":"ukr-zhytomyroblast","iso3":"UKR","population":114034,"seat":false},"geometry":{"type":"Point","coordinates":[28.7001,50.2449]}},{"type":"Feature","properties":{"id":"city-bilatserkva-ukr-kyivoblast","name":"Bila Tserkva","province_id":"ukr-kyivoblast","iso3":"UKR","population":207273,"seat":true},"geometry":{"type":"Point","coordinates":[30.1165,49.7994]}},{"type":"Feature","properties":{"id":"city-chernihiv-ukr-chernihivoblast","name":"Chernihiv","province_id":"ukr-chernihivoblast","iso3":"UKR","population":282747,"seat":true},"geometry":{"type":"Point","coordinates":[31.2866,51.5054]}},{"type":"Feature","properties":{"id":"city-desnyanskyi-ukr-chernihivoblast","name":"Desnyanskyi","province_id":"ukr-chernihivoblast","iso3":"UKR","population":179600,"seat":false},"geometry":{"type":"Point","coordinates":[31.3168,51.5063]}},{"type":"Feature","properties":{"id":"city-novozavodskyi-ukr-chernihivoblast","name":"Novozavodskyi","province_id":"ukr-chernihivoblast","iso3":"UKR","population":179600,"seat":false},"geometry":{"type":"Point","coordinates":[31.2563,51.4893]}},{"type":"Feature","properties":{"id":"city-sumy-ukr-sumyoblast","name":"Sumy","province_id":"ukr-sumyoblast","iso3":"UKR","population":256474,"seat":true},"geometry":{"type":"Point","coordinates":[34.7991,50.9174]}},{"type":"Feature","properties":{"id":"city-zarichnyi-ukr-sumyoblast","name":"Zarichnyi","province_id":"ukr-sumyoblast","iso3":"UKR","population":150694,"seat":false},"geometry":{"type":"Point","coordinates":[34.8093,50.9038]}},{"type":"Feature","properties":{"id":"city-kovpakivskyi-ukr-sumyoblast","name":"Kovpakivskyi","province_id":"ukr-sumyoblast","iso3":"UKR","population":142447,"seat":false},"geometry":{"type":"Point","coordinates":[34.7948,50.9251]}},{"type":"Feature","properties":{"id":"city-kharkiv-ukr-kharkivoblast","name":"Kharkiv","province_id":"ukr-kharkivoblast","iso3":"UKR","population":1421125,"seat":true},"geometry":{"type":"Point","coordinates":[36.2548,49.9818]}},{"type":"Feature","properties":{"id":"city-saltivka-ukr-kharkivoblast","name":"Saltivka","province_id":"ukr-kharkivoblast","iso3":"UKR","population":409300,"seat":false},"geometry":{"type":"Point","coordinates":[36.349,50.0221]}},{"type":"Feature","properties":{"id":"city-saltivskyi-ukr-kharkivoblast","name":"Saltivskyi","province_id":"ukr-kharkivoblast","iso3":"UKR","population":302600,"seat":false},"geometry":{"type":"Point","coordinates":[36.316,49.999]}},{"type":"Feature","properties":{"id":"city-luhansk-ukr-luhanskoblast","name":"Luhansk","province_id":"ukr-luhanskoblast","iso3":"UKR","population":397677,"seat":true},"geometry":{"type":"Point","coordinates":[39.3055,48.5681]}},{"type":"Feature","properties":{"id":"city-verhunskyi-ukr-luhanskoblast","name":"Verhunskyi","province_id":"ukr-luhanskoblast","iso3":"UKR","population":185593,"seat":false},"geometry":{"type":"Point","coordinates":[39.3716,48.5857]}},{"type":"Feature","properties":{"id":"city-vilkhivskyi-ukr-luhanskoblast","name":"Vilkhivskyi","province_id":"ukr-luhanskoblast","iso3":"UKR","population":126340,"seat":false},"geometry":{"type":"Point","coordinates":[39.282,48.5433]}},{"type":"Feature","properties":{"id":"city-donetsk-ukr-donetskoblast","name":"Donetsk","province_id":"ukr-donetskoblast","iso3":"UKR","population":901645,"seat":true},"geometry":{"type":"Point","coordinates":[37.8022,48.023]}},{"type":"Feature","properties":{"id":"city-pravyibereh-ukr-donetskoblast","name":"Pravyi Bereh","province_id":"ukr-donetskoblast","iso3":"UKR","population":352088,"seat":false},"geometry":{"type":"Point","coordinates":[37.5852,47.115]}},{"type":"Feature","properties":{"id":"city-tsentralnyi-ukr-donetskoblast","name":"Tsentralnyi","province_id":"ukr-donetskoblast","iso3":"UKR","population":179582,"seat":false},"geometry":{"type":"Point","coordinates":[37.5484,47.0983]}},{"type":"Feature","properties":{"id":"city-zaporizhzhya-ukr-zaporizhiaoblast","name":"Zaporizhzhya","province_id":"ukr-zaporizhiaoblast","iso3":"UKR","population":710052,"seat":true},"geometry":{"type":"Point","coordinates":[35.1171,47.8517]}},{"type":"Feature","properties":{"id":"city-lviv-ukr-lvivoblast","name":"Lviv","province_id":"ukr-lvivoblast","iso3":"UKR","population":717273,"seat":true},"geometry":{"type":"Point","coordinates":[24.0232,49.8383]}},{"type":"Feature","properties":{"id":"city-sykhiv-ukr-lvivoblast","name":"Sykhiv","province_id":"ukr-lvivoblast","iso3":"UKR","population":151131,"seat":false},"geometry":{"type":"Point","coordinates":[24.0628,49.7943]}},{"type":"Feature","properties":{"id":"city-ivanofrankivsk-ukr-ivanofrankivskoblast","name":"Ivano-Frankivsk","province_id":"ukr-ivanofrankivskoblast","iso3":"UKR","population":238196,"seat":true},"geometry":{"type":"Point","coordinates":[24.7125,48.9231]}},{"type":"Feature","properties":{"id":"city-uzhhorod-ukr-zakarpattiaoblast","name":"Uzhhorod","province_id":"ukr-zakarpattiaoblast","iso3":"UKR","population":115449,"seat":true},"geometry":{"type":"Point","coordinates":[22.2947,48.6242]}},{"type":"Feature","properties":{"id":"city-ternopil-ukr-ternopiloblast","name":"Ternopil","province_id":"ukr-ternopiloblast","iso3":"UKR","population":225238,"seat":true},"geometry":{"type":"Point","coordinates":[25.5907,49.554]}},{"type":"Feature","properties":{"id":"city-chernivtsi-ukr-chernivtsioblast","name":"Chernivtsi","province_id":"ukr-chernivtsioblast","iso3":"UKR","population":264298,"seat":true},"geometry":{"type":"Point","coordinates":[25.9324,48.2904]}},{"type":"Feature","properties":{"id":"city-odesa-ukr-odessaoblast","name":"Odesa","province_id":"ukr-odessaoblast","iso3":"UKR","population":1010537,"seat":true},"geometry":{"type":"Point","coordinates":[30.7438,46.4857]}},{"type":"Feature","properties":{"id":"city-cheremushky-ukr-odessaoblast","name":"Cheremushky","province_id":"ukr-odessaoblast","iso3":"UKR","population":120000,"seat":false},"geometry":{"type":"Point","coordinates":[30.7115,46.4325]}},{"type":"Feature","properties":{"id":"city-mykolayiv-ukr-mykolaivoblast","name":"Mykolayiv","province_id":"ukr-mykolaivoblast","iso3":"UKR","population":470011,"seat":true},"geometry":{"type":"Point","coordinates":[31.993,46.9763]}},{"type":"Feature","properties":{"id":"city-simferopol-ukr-crimea","name":"Simferopol","province_id":"ukr-crimea","iso3":"UKR","population":336460,"seat":true},"geometry":{"type":"Point","coordinates":[34.1108,44.9572]}},{"type":"Feature","properties":{"id":"city-vinnytsya-ukr-vinnytsiaoblast","name":"Vinnytsya","province_id":"ukr-vinnytsiaoblast","iso3":"UKR","population":430091,"seat":true},"geometry":{"type":"Point","coordinates":[28.4687,49.2322]}},{"type":"Feature","properties":{"id":"city-khmelnytskyi-ukr-khmelnytskyioblast","name":"Khmelnytskyi","province_id":"ukr-khmelnytskyioblast","iso3":"UKR","population":274452,"seat":true},"geometry":{"type":"Point","coordinates":[26.9794,49.4183]}},{"type":"Feature","properties":{"id":"city-cherkasy-ukr-cherkasyoblast","name":"Cherkasy","province_id":"ukr-cherkasyoblast","iso3":"UKR","population":269836,"seat":true},"geometry":{"type":"Point","coordinates":[32.0574,49.4445]}},{"type":"Feature","properties":{"id":"city-poltava-ukr-poltavaoblast","name":"Poltava","province_id":"ukr-poltavaoblast","iso3":"UKR","population":279593,"seat":true},"geometry":{"type":"Point","coordinates":[34.5537,49.5892]}},{"type":"Feature","properties":{"id":"city-avtozavodskyi-ukr-poltavaoblast","name":"Avtozavodskyi","province_id":"ukr-poltavaoblast","iso3":"UKR","population":157382,"seat":false},"geometry":{"type":"Point","coordinates":[33.4321,49.0975]}},{"type":"Feature","properties":{"id":"city-shevchenko-ukr-poltavaoblast","name":"Shevchenko","province_id":"ukr-poltavaoblast","iso3":"UKR","population":147600,"seat":false},"geometry":{"type":"Point","coordinates":[34.5387,49.5645]}},{"type":"Feature","properties":{"id":"city-dnipro-ukr-dnipropetrovskoblast","name":"Dnipro","province_id":"ukr-dnipropetrovskoblast","iso3":"UKR","population":968502,"seat":true},"geometry":{"type":"Point","coordinates":[35.0407,48.4666]}},{"type":"Feature","properties":{"id":"city-nyzhnodniprovsk-ukr-dnipropetrovskoblast","name":"Nyzhnodniprovsk","province_id":"ukr-dnipropetrovskoblast","iso3":"UKR","population":160123,"seat":false},"geometry":{"type":"Point","coordinates":[35.1167,48.4755]}},{"type":"Feature","properties":{"id":"city-kropyvnytskyi-ukr-kirovohradoblast","name":"Kropyvnytskyi","province_id":"ukr-kirovohradoblast","iso3":"UKR","population":219676,"seat":true},"geometry":{"type":"Point","coordinates":[32.2662,48.5083]}},{"type":"Feature","properties":{"id":"city-fortechnyi-ukr-kirovohradoblast","name":"Fortechnyi","province_id":"ukr-kirovohradoblast","iso3":"UKR","population":167451,"seat":false},"geometry":{"type":"Point","coordinates":[32.2537,48.4986]}},{"type":"Feature","properties":{"id":"city-podilskyi-ukr-kirovohradoblast","name":"Podilskyi","province_id":"ukr-kirovohradoblast","iso3":"UKR","population":86652,"seat":false},"geometry":{"type":"Point","coordinates":[32.2803,48.5036]}},{"type":"Feature","properties":{"id":"city-kyiv-ukr-kyiv","name":"Kyiv","province_id":"ukr-kyiv","iso3":"UKR","population":2952301,"seat":true},"geometry":{"type":"Point","coordinates":[30.5238,50.4547]}},{"type":"Feature","properties":{"id":"city-desna-ukr-kyiv","name":"Desna","province_id":"ukr-kyiv","iso3":"UKR","population":368500,"seat":false},"geometry":{"type":"Point","coordinates":[30.6823,50.5221]}},{"type":"Feature","properties":{"id":"city-dniprovskyi-ukr-kyiv","name":"Dniprovskyi","province_id":"ukr-kyiv","iso3":"UKR","population":357900,"seat":false},"geometry":{"type":"Point","coordinates":[30.6015,50.4537]}},{"type":"Feature","properties":{"id":"city-sevastopol-ukr-sevastopol","name":"Sevastopol","province_id":"ukr-sevastopol","iso3":"UKR","population":547820,"seat":true},"geometry":{"type":"Point","coordinates":[33.5213,44.608]}},{"type":"Feature","properties":{"id":"city-adana-tur-mediterranean","name":"Adana","province_id":"tur-mediterranean","iso3":"TUR","population":1816750,"seat":true},"geometry":{"type":"Point","coordinates":[35.3253,36.9862]}},{"type":"Feature","properties":{"id":"city-izmir-tur-aegean","name":"\u0130zmir","province_id":"tur-aegean","iso3":"TUR","population":2938292,"seat":true},"geometry":{"type":"Point","coordinates":[27.1384,38.4127]}},{"type":"Feature","properties":{"id":"city-karabaglar-tur-aegean","name":"Karaba\u011flar","province_id":"tur-aegean","iso3":"TUR","population":479338,"seat":false},"geometry":{"type":"Point","coordinates":[27.132,38.382]}},{"type":"Feature","properties":{"id":"city-konak-tur-aegean","name":"Konak","province_id":"tur-aegean","iso3":"TUR","population":332277,"seat":false},"geometry":{"type":"Point","coordinates":[27.1,38.4]}},{"type":"Feature","properties":{"id":"city-samsun-tur-westblacksea","name":"Samsun","province_id":"tur-westblacksea","iso3":"TUR","population":394050,"seat":true},"geometry":{"type":"Point","coordinates":[36.3361,41.2798]}},{"type":"Feature","properties":{"id":"city-trabzon-tur-eastblacksea","name":"Trabzon","province_id":"tur-eastblacksea","iso3":"TUR","population":244083,"seat":true},"geometry":{"type":"Point","coordinates":[39.7269,41.005]}},{"type":"Feature","properties":{"id":"city-ankara-tur-westanatolia","name":"Ankara","province_id":"tur-westanatolia","iso3":"TUR","population":3517182,"seat":true},"geometry":{"type":"Point","coordinates":[32.8543,39.9199]}},{"type":"Feature","properties":{"id":"city-cankaya-tur-westanatolia","name":"\u00c7ankaya","province_id":"tur-westanatolia","iso3":"TUR","population":792189,"seat":false},"geometry":{"type":"Point","coordinates":[32.8627,39.9179]}},{"type":"Feature","properties":{"id":"city-batikent-tur-westanatolia","name":"Batikent","province_id":"tur-westanatolia","iso3":"TUR","population":300000,"seat":false},"geometry":{"type":"Point","coordinates":[32.7308,39.9683]}},{"type":"Feature","properties":{"id":"city-kayseri-tur-centralanatolia","name":"Kayseri","province_id":"tur-centralanatolia","iso3":"TUR","population":1452458,"seat":true},"geometry":{"type":"Point","coordinates":[35.4853,38.7322]}},{"type":"Feature","properties":{"id":"city-erzurum-tur-northeastanatolia","name":"Erzurum","province_id":"tur-northeastanatolia","iso3":"TUR","population":767848,"seat":true},"geometry":{"type":"Point","coordinates":[41.2769,39.9086]}},{"type":"Feature","properties":{"id":"city-gaziantep-tur-southeastanatolia","name":"Gaziantep","province_id":"tur-southeastanatolia","iso3":"TUR","population":2222415,"seat":true},"geometry":{"type":"Point","coordinates":[37.3825,37.0594]}},{"type":"Feature","properties":{"id":"city-bursa-tur-eastmarmara","name":"Bursa","province_id":"tur-eastmarmara","iso3":"TUR","population":3101833,"seat":true},"geometry":{"type":"Point","coordinates":[29.0601,40.1956]}},{"type":"Feature","properties":{"id":"city-malatya-tur-centraleastanatolia","name":"Malatya","province_id":"tur-centraleastanatolia","iso3":"TUR","population":750491,"seat":true},"geometry":{"type":"Point","coordinates":[38.3167,38.3502]}},{"type":"Feature","properties":{"id":"city-akcapinar-tur-centraleastanatolia","name":"Ak\u00e7ap\u0131nar","province_id":"tur-centraleastanatolia","iso3":"TUR","population":84366,"seat":false},"geometry":{"type":"Point","coordinates":[38.9423,38.9473]}},{"type":"Feature","properties":{"id":"city-balikesir-tur-westmarmara","name":"Bal\u0131kesir","province_id":"tur-westmarmara","iso3":"TUR","population":238151,"seat":true},"geometry":{"type":"Point","coordinates":[27.8861,39.6492]}},{"type":"Feature","properties":{"id":"city-cerkezkoey-tur-westmarmara","name":"\u00c7erkezk\u00f6y","province_id":"tur-westmarmara","iso3":"TUR","population":84234,"seat":false},"geometry":{"type":"Point","coordinates":[27.9994,41.2863]}},{"type":"Feature","properties":{"id":"city-istanbul-tur-istanbul","name":"Istanbul","province_id":"tur-istanbul","iso3":"TUR","population":15701602,"seat":true},"geometry":{"type":"Point","coordinates":[28.9497,41.0138]}},{"type":"Feature","properties":{"id":"city-esenyurt-tur-istanbul","name":"Esenyurt","province_id":"tur-istanbul","iso3":"TUR","population":983571,"seat":false},"geometry":{"type":"Point","coordinates":[28.6773,41.027]}},{"type":"Feature","properties":{"id":"city-kuecuekcekmece-tur-istanbul","name":"K\u00fc\u00e7\u00fck\u00e7ekmece","province_id":"tur-istanbul","iso3":"TUR","population":792030,"seat":false},"geometry":{"type":"Point","coordinates":[28.7712,40.991]}},{"type":"Feature","properties":{"id":"city-kazan-rus-volga","name":"Kazan","province_id":"rus-volga","iso3":"RUS","population":1243500,"seat":true},"geometry":{"type":"Point","coordinates":[49.1221,55.7887]}},{"type":"Feature","properties":{"id":"city-tolyatti-rus-volga","name":"Tolyatti","province_id":"rus-volga","iso3":"RUS","population":702879,"seat":false},"geometry":{"type":"Point","coordinates":[49.3461,53.5303]}},{"type":"Feature","properties":{"id":"city-engels-rus-volga","name":"Engels","province_id":"rus-volga","iso3":"RUS","population":196011,"seat":false},"geometry":{"type":"Point","coordinates":[46.1053,51.4839]}},{"type":"Feature","properties":{"id":"city-moscow-rus-central","name":"Moscow","province_id":"rus-central","iso3":"RUS","population":10381222,"seat":true},"geometry":{"type":"Point","coordinates":[37.6178,55.752]}},{"type":"Feature","properties":{"id":"city-marino-rus-central","name":"Mar\u2019ino","province_id":"rus-central","iso3":"RUS","population":243000,"seat":false},"geometry":{"type":"Point","coordinates":[37.7167,55.65]}},{"type":"Feature","properties":{"id":"city-vykhinozhulebino-rus-central","name":"Vykhino-Zhulebino","province_id":"rus-central","iso3":"RUS","population":216000,"seat":false},"geometry":{"type":"Point","coordinates":[37.8118,55.702]}},{"type":"Feature","properties":{"id":"city-makhachkala-rus-northcaucasian","name":"Makhachkala","province_id":"rus-northcaucasian","iso3":"RUS","population":596356,"seat":true},"geometry":{"type":"Point","coordinates":[47.5003,42.9778]}},{"type":"Feature","properties":{"id":"city-kaspiysk-rus-northcaucasian","name":"Kaspiysk","province_id":"rus-northcaucasian","iso3":"RUS","population":81752,"seat":false},"geometry":{"type":"Point","coordinates":[47.6392,42.8817]}},{"type":"Feature","properties":{"id":"city-rostovondon-rus-southern","name":"Rostov-on-Don","province_id":"rus-southern","iso3":"RUS","population":1130305,"seat":true},"geometry":{"type":"Point","coordinates":[39.7077,47.22]}},{"type":"Feature","properties":{"id":"city-volzhsky-rus-southern","name":"Volzhsky","province_id":"rus-southern","iso3":"RUS","population":323293,"seat":false},"geometry":{"type":"Point","coordinates":[44.7797,48.7858]}},{"type":"Feature","properties":{"id":"city-taganrog-rus-southern","name":"Taganrog","province_id":"rus-southern","iso3":"RUS","population":279056,"seat":false},"geometry":{"type":"Point","coordinates":[38.9053,47.2363]}},{"type":"Feature","properties":{"id":"city-kaliningrad-rus-northwestern","name":"Kaliningrad","province_id":"rus-northwestern","iso3":"RUS","population":475056,"seat":true},"geometry":{"type":"Point","coordinates":[20.511,54.7064]}}]}