{"type":"FeatureCollection","note":"World Port Index, US Government public domain.","features":[{"type":"Feature","properties":{"id":"port-deltaterminal","name":"Delta Terminal","harbor_size":"Very Small"},"geometry":{"type":"Point","coordinates":[36.1667,36.85]}},{"type":"Feature","properties":{"id":"port-larimna","name":"Larimna","harbor_size":"Very Small"},"geometry":{"type":"Point","coordinates":[23.2833,38.5667]}},{"type":"Feature","properties":{"id":"port-melillioilterminal","name":"Melilli Oil Terminal","harbor_size":"Very Small"},"geometry":{"type":"Point","coordinates":[15.25,37.1167]}},{"type":"Feature","properties":{"id":"port-aksazlimani","name":"Aksaz Limani","harbor_size":"Small"},"geometry":{"type":"Point","coordinates":[28.3833,36.8333]}},{"type":"Feature","properties":{"id":"port-ayiosnikolaos","name":"Ayios Nikolaos","harbor_size":"Very Small"},"geometry":{"type":"Point","coordinates":[23.5333,37.9833]}},{"type":"Feature","properties":{"id":"port-borusanfertilizerjetty","name":"Borusan Fertilizer Jetty","harbor_size":"Very Small"},"geometry":{"type":"Point","coordinates":[29.1,40.4167]}},{"type":"Feature","properties":{"id":"port-vrakhonisiskallonis","name":"Vrakhonisis Kallonis","harbor_size":"Very Small"},"geometry":{"type":"Point","coordinates":[26.0833,39.0833]}},{"type":"Feature","properties":{"id":"port-stilis","name":"Stilis","harbor_size":"Very Small"},"geometry":{"type":"Point","coordinates":[22.6167,38.9167]}},{"type":"Feature","properties":{"id":"port-itea","name":"Itea","harbor_size":"Very Small"},"geometry":{"type":"Point","coordinates":[22.4167,38.4333]}},{"type":"Feature","properties":{"id":"port-dubrovnik","name":"Dubrovnik","harbor_size":"Small"},"geometry":{"type":"Point","coordinates":[18.0833,42.6667]}},{"type":"Feature","properties":{"id":"port-astakos","name":"Astakos","harbor_size":"Small"},"geometry":{"type":"Point","coordinates":[21.1,38.4833]}},{"type":"Feature","properties":{"id":"port-mesolongion","name":"Mesolongion","harbor_size":"Very Small"},"geometry":{"type":"Point","coordinates":[21.4167,38.3667]}},{"type":"Feature","properties":{"id":"port-andros","name":"Andros","harbor_size":"Very Small"},"geometry":{"type":"Point","coordinates":[24.95,37.8333]}},{"type":"Feature","properties":{"id":"port-antalyaoffshoreterminal","name":"Antalya Offshore Terminal","harbor_size":"Very Small"},"geometry":{"type":"Point","coordinates":[30.6,36.8167]}},{"type":"Feature","properties":{"id":"port-antalya","name":"Antalya","harbor_size":"Small"},"geometry":{"type":"Point","coordinates":[30.6167,36.8333]}},{"type":"Feature","properties":{"id":"port-achladi","name":"Achladi","harbor_size":"Very Small"},"geometry":{"type":"Point","coordinates":[22.8167,38.9]}},{"type":"Feature","properties":{"id":"port-ortona","name":"Ortona","harbor_size":"Small"},"geometry":{"type":"Point","coordinates":[14.4167,42.35]}},{"type":"Feature","properties":{"id":"port-taranto","name":"Taranto","harbor_size":"Large"},"geometry":{"type":"Point","coordinates":[17.2,40.4667]}},{"type":"Feature","properties":{"id":"port-stratoni","name":"Stratoni","harbor_size":"Very Small"},"geometry":{"type":"Point","coordinates":[23.8333,40.5167]}},{"type":"Feature","properties":{"id":"port-yerakini","name":"Yerakini","harbor_size":"Very Small"},"geometry":{"type":"Point","coordinates":[23.4667,40.2667]}},{"type":"Feature","properties":{"id":"port-plomarion","name":"Plomarion","harbor_size":"Very Small"},"geometry":{"type":"Point","coordinates":[26.3667,38.9833]}},{"type":"Feature","properties":{"id":"port-ploce","name":"Ploce","harbor_size":"Very Small"},"geometry":{"type":"Point","coordinates":[17.4333,43.05]}},{"type":"Feature","properties":{"id":"port-tsingeli","name":"Tsingeli","harbor_size":"Very Small"},"geometry":{"type":"Point","coordinates":[22.85,39.1667]}},{"type":"Feature","properties":{"id":"port-manfredonia","name":"Manfredonia","harbor_size":"Small"},"geometry":{"type":"Point","coordinates":[15.9167,41.6167]}},{"type":"Feature","properties":{"id":"port-korcula","name":"Korcula","harbor_size":"Very Small"},"geometry":{"type":"Point","coordinates":[17.1333,42.9333]}},{"type":"Feature","properties":{"id":"port-aigio","name":"Aigio","harbor_size":"Very Small"},"geometry":{"type":"Point","coordinates":[22.0833,38.25]}},{"type":"Feature","properties":{"id":"port-dugirat","name":"Dugi Rat","harbor_size":"Very Small"},"geometry":{"type":"Point","coordinates":[16.65,43.45]}},{"type":"Feature","properties":{"id":"port-nisosnaxos","name":"Nisos Naxos","harbor_size":"Very Small"},"geometry":{"type":"Point","coordinates":[25.3667,37.1]}},{"type":"Feature","properties":{"id":"port-piraievs","name":"Piraievs","harbor_size":"Large"},"geometry":{"type":"Point","coordinates":[23.65,37.9333]}},{"type":"Feature","properties":{"id":"port-rijekaluka","name":"Rijeka Luka","harbor_size":"Large"},"geometry":{"type":"Point","coordinates":[14.4333,45.3333]}},{"type":"Feature","properties":{"id":"port-crotone","name":"Crotone","harbor_size":"Small"},"geometry":{"type":"Point","coordinates":[17.136,39.078]}},{"type":"Feature","properties":{"id":"port-portodibarletta","name":"Porto Di Barletta","harbor_size":"Very Small"},"geometry":{"type":"Point","coordinates":[16.292,41.334]}},{"type":"Feature","properties":{"id":"port-bari","name":"Bari","harbor_size":"Medium"},"geometry":{"type":"Point","coordinates":[16.846,41.146]}},{"type":"Feature","properties":{"id":"port-kerkira","name":"Kerkira","harbor_size":"Medium"},"geometry":{"type":"Point","coordinates":[19.9333,39.6167]}},{"type":"Feature","properties":{"id":"port-napoli","name":"Napoli","harbor_size":"Large"},"geometry":{"type":"Point","coordinates":[14.275,40.833]}},{"type":"Feature","properties":{"id":"port-mikonos","name":"Mikonos","harbor_size":"Very Small"},"geometry":{"type":"Point","coordinates":[25.3333,37.45]}},{"type":"Feature","properties":{"id":"port-kavala","name":"Kavala","harbor_size":"Small"},"geometry":{"type":"Point","coordinates":[24.4,40.9333]}},{"type":"Feature","properties":{"id":"port-molfetta","name":"Molfetta","harbor_size":"Small"},"geometry":{"type":"Point","coordinates":[16.6,41.2167]}},{"type":"Feature","properties":{"id":"port-lavrio","name":"Lavrio","harbor_size":"Very Small"},"geometry":{"type":"Point","coordinates":[24.0667,37.7]}},{"type":"Feature","properties":{"id":"port-alexandroupoli","name":"Alexandroupoli","harbor_size":"Medium"},"geometry":{"type":"Point","coordinates":[25.8833,40.8333]}},{"type":"Feature","properties":{"id":"port-neonkarlovas","name":"Neon Karlovas","harbor_size":"Small"},"geometry":{"type":"Point","coordinates":[26.6833,37.8]}},{"type":"Feature","properties":{"id":"port-gavrio","name":"Gavrio","harbor_size":"Very Small"},"geometry":{"type":"Point","coordinates":[24.7333,37.8833]}},{"type":"Feature","properties":{"id":"port-argostolion","name":"Argostolion","harbor_size":"Very Small"},"geometry":{"type":"Point","coordinates":[20.5167,38.1833]}},{"type":"Feature","properties":{"id":"port-katakolon","name":"Katakolon","harbor_size":"Very Small"},"geometry":{"type":"Point","coordinates":[21.3167,37.65]}},{"type":"Feature","properties":{"id":"port-navplio","name":"Navplio","harbor_size":"Very Small"},"geometry":{"type":"Point","coordinates":[22.8,37.5667]}},{"type":"Feature","properties":{"id":"port-megaraoilterminal","name":"Megara Oil Terminal","harbor_size":"Very Small"},"geometry":{"type":"Point","coordinates":[23.4,37.9667]}},{"type":"Feature","properties":{"id":"port-sibenik","name":"Sibenik","harbor_size":"Small"},"geometry":{"type":"Point","coordinates":[15.8833,43.7333]}},{"type":"Feature","properties":{"id":"port-ormosaliveriou","name":"Ormos Aliveriou","harbor_size":"Medium"},"geometry":{"type":"Point","coordinates":[24.05,38.3833]}},{"type":"Feature","properties":{"id":"port-spetses","name":"Spetses","harbor_size":"Very Small"},"geometry":{"type":"Point","coordinates":[23.1667,37.2667]}},{"type":"Feature","properties":{"id":"port-patrai","name":"Patrai","harbor_size":"Small"},"geometry":{"type":"Point","coordinates":[21.7333,38.25]}},{"type":"Feature","properties":{"id":"port-siracusa","name":"Siracusa","harbor_size":"Large"},"geometry":{"type":"Point","coordinates":[15.2833,37.05]}},{"type":"Feature","properties":{"id":"port-torreannunziata","name":"Torre Annunziata","harbor_size":"Small"},"geometry":{"type":"Point","coordinates":[14.45,40.75]}},{"type":"Feature","properties":{"id":"port-salerno","name":"Salerno","harbor_size":"Small"},"geometry":{"type":"Point","coordinates":[14.75,40.6667]}},{"type":"Feature","properties":{"id":"port-botas","name":"Botas","harbor_size":"Very Small"},"geometry":{"type":"Point","coordinates":[35.9333,36.8833]}},{"type":"Feature","properties":{"id":"port-bodrum","name":"Bodrum","harbor_size":"Very Small"},"geometry":{"type":"Point","coordinates":[27.4333,37.0333]}},{"type":"Feature","properties":{"id":"port-dikili","name":"Dikili","harbor_size":"Very Small"},"geometry":{"type":"Point","coordinates":[26.8167,39.0167]}},{"type":"Feature","properties":{"id":"port-erdek","name":"Erdek","harbor_size":"Very Small"},"geometry":{"type":"Point","coordinates":[27.8,40.3833]}},{"type":"Feature","properties":{"id":"port-ayvalik","name":"Ayvalik","harbor_size":"Very Small"},"geometry":{"type":"Point","coordinates":[26.7,39.3167]}},{"type":"Feature","properties":{"id":"port-nemrutlimanibay","name":"Nemrut Limani Bay","harbor_size":"Medium"},"geometry":{"type":"Point","coordinates":[26.9167,38.7667]}},{"type":"Feature","properties":{"id":"port-fethiye","name":"Fethiye","harbor_size":"Very Small"},"geometry":{"type":"Point","coordinates":[29.1,36.6333]}},{"type":"Feature","properties":{"id":"port-aliaga","name":"Aliaga","harbor_size":"Very Small"},"geometry":{"type":"Point","coordinates":[26.9333,38.8333]}},{"type":"Feature","properties":{"id":"port-torosgubre","name":"Toros Gubre","harbor_size":"Very Small"},"geometry":{"type":"Point","coordinates":[35.9667,36.9167]}},{"type":"Feature","properties":{"id":"port-izmir","name":"Izmir","harbor_size":"Large"},"geometry":{"type":"Point","coordinates":[27.1333,38.4333]}},{"type":"Feature","properties":{"id":"port-durres","name":"Durres","harbor_size":"Small"},"geometry":{"type":"Point","coordinates":[19.45,41.3167]}},{"type":"Feature","properties":{"id":"port-bar","name":"Bar","harbor_size":"Small"},"geometry":{"type":"Point","coordinates":[19.0833,42.0833]}},{"type":"Feature","properties":{"id":"port-kotor","name":"Kotor","harbor_size":"Very Small"},"geometry":{"type":"Point","coordinates":[18.7667,42.4167]}},{"type":"Feature","properties":{"id":"port-bakar","name":"Bakar","harbor_size":"Small"},"geometry":{"type":"Point","coordinates":[14.5333,45.3]}},{"type":"Feature","properties":{"id":"port-brindisi","name":"Brindisi","harbor_size":"Large"},"geometry":{"type":"Point","coordinates":[17.9833,40.65]}},{"type":"Feature","properties":{"id":"port-gallipoli","name":"Gallipoli","harbor_size":"Medium"},"geometry":{"type":"Point","coordinates":[17.984,40.06]}},{"type":"Feature","properties":{"id":"port-milazzo","name":"Milazzo","harbor_size":"Medium"},"geometry":{"type":"Point","coordinates":[15.25,38.2167]}},{"type":"Feature","properties":{"id":"port-bagnoli","name":"Bagnoli","harbor_size":"Small"},"geometry":{"type":"Point","coordinates":[14.158,40.81]}},{"type":"Feature","properties":{"id":"port-castellammaredistabia","name":"Castellammare Di Stabia","harbor_size":"Very Small"},"geometry":{"type":"Point","coordinates":[14.476,40.7]}},{"type":"Feature","properties":{"id":"port-gemlik","name":"Gemlik","harbor_size":"Very Small"},"geometry":{"type":"Point","coordinates":[29.1167,40.4167]}},{"type":"Feature","properties":{"id":"port-canakkale","name":"Canakkale","harbor_size":"Small"},"geometry":{"type":"Point","coordinates":[26.4,40.15]}},{"type":"Feature","properties":{"id":"port-iskenderun","name":"Iskenderun","harbor_size":"Very Small"},"geometry":{"type":"Point","coordinates":[36.1667,36.6]}},{"type":"Feature","properties":{"id":"port-kymassi","name":"Kymassi","harbor_size":"Very Small"},"geometry":{"type":"Point","coordinates":[23.4667,38.8333]}},{"type":"Feature","properties":{"id":"port-gioiatauro","name":"Gioia Tauro","harbor_size":"Large"},"geometry":{"type":"Point","coordinates":[15.89,38.444]}},{"type":"Feature","properties":{"id":"port-gela","name":"Gela","harbor_size":"Very Small"},"geometry":{"type":"Point","coordinates":[14.25,37.0667]}},{"type":"Feature","properties":{"id":"port-catania","name":"Catania","harbor_size":"Medium"},"geometry":{"type":"Point","coordinates":[15.1,37.5]}},{"type":"Feature","properties":{"id":"port-brsica","name":"Brsica","harbor_size":"Very Small"},"geometry":{"type":"Point","coordinates":[14.05,45.0333]}},{"type":"Feature","properties":{"id":"port-mudanya","name":"Mudanya","harbor_size":"Very Small"},"geometry":{"type":"Point","coordinates":[28.8833,40.3833]}},{"type":"Feature","properties":{"id":"port-bandirma","name":"Bandirma","harbor_size":"Very Small"},"geometry":{"type":"Point","coordinates":[27.9667,40.35]}},{"type":"Feature","properties":{"id":"port-karabiga","name":"Karabiga","harbor_size":"Very Small"},"geometry":{"type":"Point","coordinates":[27.3167,40.4]}},{"type":"Feature","properties":{"id":"port-gulluk","name":"Gulluk","harbor_size":"Very Small"},"geometry":{"type":"Point","coordinates":[27.6167,37.25]}},{"type":"Feature","properties":{"id":"port-kusadasi","name":"Kusadasi","harbor_size":"Very Small"},"geometry":{"type":"Point","coordinates":[27.25,37.8667]}},{"type":"Feature","properties":{"id":"port-marmaris","name":"Marmaris","harbor_size":"Very Small"},"geometry":{"type":"Point","coordinates":[28.2833,36.85]}},{"type":"Feature","properties":{"id":"port-miliana","name":"Miliana","harbor_size":"Very Small"},"geometry":{"type":"Point","coordinates":[23.2167,39.1667]}},{"type":"Feature","properties":{"id":"port-neum","name":"Neum","harbor_size":"Small"},"geometry":{"type":"Point","coordinates":[17.6,42.9167]}},{"type":"Feature","properties":{"id":"port-kalimnos","name":"Kalimnos","harbor_size":"Very Small"},"geometry":{"type":"Point","coordinates":[26.9833,36.95]}},{"type":"Feature","properties":{"id":"port-gelibolu","name":"Gelibolu","harbor_size":"Very Small"},"geometry":{"type":"Point","coordinates":[26.6667,40.4]}},{"type":"Feature","properties":{"id":"port-omisalj","name":"Omisalj","harbor_size":"Small"},"geometry":{"type":"Point","coordinates":[14.55,45.2167]}},{"type":"Feature","properties":{"id":"port-messina","name":"Messina","harbor_size":"Large"},"geometry":{"type":"Point","coordinates":[15.5667,38.2]}},{"type":"Feature","properties":{"id":"port-khios","name":"Khios","harbor_size":"Very Small"},"geometry":{"type":"Point","coordinates":[26.1333,38.3667]}},{"type":"Feature","properties":{"id":"port-liminkos","name":"Limin Kos","harbor_size":"Very Small"},"geometry":{"type":"Point","coordinates":[27.2833,36.9]}},{"type":"Feature","properties":{"id":"port-pilos","name":"Pilos","harbor_size":"Very Small"},"geometry":{"type":"Point","coordinates":[21.6667,36.9]}},{"type":"Feature","properties":{"id":"port-zalivrasa","name":"Zaliv Rasa","harbor_size":"Very Small"},"geometry":{"type":"Point","coordinates":[14.0667,45.05]}},{"type":"Feature","properties":{"id":"port-pithagorion","name":"Pithagorion","harbor_size":"Very Small"},"geometry":{"type":"Point","coordinates":[26.95,37.6833]}},{"type":"Feature","properties":{"id":"port-augusta","name":"Augusta","harbor_size":"Medium"},"geometry":{"type":"Point","coordinates":[15.2333,37.2167]}},{"type":"Feature","properties":{"id":"port-eceabat","name":"Eceabat","harbor_size":"Very Small"},"geometry":{"type":"Point","coordinates":[26.3667,40.1833]}},{"type":"Feature","properties":{"id":"port-botasdortyoloilterminal","name":"Botas Dortyol Oil Terminal","harbor_size":"Very Small"},"geometry":{"type":"Point","coordinates":[36.1333,36.8667]}},{"type":"Feature","properties":{"id":"port-lagos","name":"Lagos","harbor_size":"Very Small"},"geometry":{"type":"Point","coordinates":[25.1333,41.0]}},{"type":"Feature","properties":{"id":"port-mersin","name":"Mersin","harbor_size":"Medium"},"geometry":{"type":"Point","coordinates":[34.6333,36.8]}},{"type":"Feature","properties":{"id":"port-porthmosevripou","name":"Porthmos Evripou","harbor_size":"Very Small"},"geometry":{"type":"Point","coordinates":[23.5833,38.4667]}},{"type":"Feature","properties":{"id":"port-risan","name":"Risan","harbor_size":"Very Small"},"geometry":{"type":"Point","coordinates":[18.7,42.5167]}},{"type":"Feature","properties":{"id":"port-zadar","name":"Zadar","harbor_size":"Small"},"geometry":{"type":"Point","coordinates":[15.2167,44.1167]}},{"type":"Feature","properties":{"id":"port-volos","name":"Volos","harbor_size":"Medium"},"geometry":{"type":"Point","coordinates":[22.95,39.3667]}},{"type":"Feature","properties":{"id":"port-split","name":"Split","harbor_size":"Large"},"geometry":{"type":"Point","coordinates":[16.4333,43.5]}},{"type":"Feature","properties":{"id":"port-thessaloniki","name":"Thessaloniki","harbor_size":"Medium"},"geometry":{"type":"Point","coordinates":[22.9333,40.6333]}},{"type":"Feature","properties":{"id":"port-rodhos","name":"Rodhos","harbor_size":"Small"},"geometry":{"type":"Point","coordinates":[28.2333,36.45]}},{"type":"Feature","properties":{"id":"port-preveza","name":"Preveza","harbor_size":"Very Small"},"geometry":{"type":"Point","coordinates":[20.75,38.95]}},{"type":"Feature","properties":{"id":"port-vasto","name":"Vasto","harbor_size":"Very Small"},"geometry":{"type":"Point","coordinates":[14.7167,42.1167]}},{"type":"Feature","properties":{"id":"port-tekirdag","name":"Tekirdag","harbor_size":"Very Small"},"geometry":{"type":"Point","coordinates":[27.5167,40.9833]}},{"type":"Feature","properties":{"id":"port-tivat","name":"Tivat","harbor_size":"Very Small"},"geometry":{"type":"Point","coordinates":[18.7,42.4333]}},{"type":"Feature","properties":{"id":"port-samos","name":"Samos","harbor_size":"Very Small"},"geometry":{"type":"Point","coordinates":[26.9667,37.75]}},{"type":"Feature","properties":{"id":"port-shengjin","name":"Shengjin","harbor_size":"Very Small"},"geometry":{"type":"Point","coordinates":[19.6,41.8167]}},{"type":"Feature","properties":{"id":"port-torredelgreco","name":"Torre Del Greco","harbor_size":"Very Small"},"geometry":{"type":"Point","coordinates":[14.3667,40.7833]}},{"type":"Feature","properties":{"id":"port-yakacik","name":"Yakacik","harbor_size":"Very Small"},"geometry":{"type":"Point","coordinates":[36.1833,36.7167]}},{"type":"Feature","properties":{"id":"port-senj","name":"Senj","harbor_size":"Very Small"},"geometry":{"type":"Point","coordinates":[14.9,44.9833]}},{"type":"Feature","properties":{"id":"port-miseno","name":"Miseno","harbor_size":"Small"},"geometry":{"type":"Point","coordinates":[14.0911,40.7882]}},{"type":"Feature","properties":{"id":"port-villasangiovanni","name":"Villa San Giovanni","harbor_size":"Small"},"geometry":{"type":"Point","coordinates":[15.63,38.222]}},{"type":"Feature","properties":{"id":"port-bisceglie","name":"Bisceglie","harbor_size":"Small"},"geometry":{"type":"Point","coordinates":[16.509,41.246]}},{"type":"Feature","properties":{"id":"port-trani","name":"Trani","harbor_size":"Small"},"geometry":{"type":"Point","coordinates":[16.4237,41.2834]}},{"type":"Feature","properties":{"id":"port-vibovalentiamarina","name":"Vibo Valentia Marina","harbor_size":"Very Small"},"geometry":{"type":"Point","coordinates":[16.13,38.723]}},{"type":"Feature","properties":{"id":"port-giardininaxos","name":"Giardini Naxos","harbor_size":"Small"},"geometry":{"type":"Point","coordinates":[15.273,37.828]}},{"type":"Feature","properties":{"id":"port-coriglianocalabro","name":"Corigliano Calabro","harbor_size":"Small"},"geometry":{"type":"Point","coordinates":[16.529,39.672]}},{"type":"Feature","properties":{"id":"port-ciromarina","name":"Ciro Marina","harbor_size":"Small"},"geometry":{"type":"Point","coordinates":[17.136,39.372]}},{"type":"Feature","properties":{"id":"port-monopoli","name":"Monopoli","harbor_size":"Small"},"geometry":{"type":"Point","coordinates":[17.308,40.955]}},{"type":"Feature","properties":{"id":"port-riposta","name":"Riposta","harbor_size":"Small"},"geometry":{"type":"Point","coordinates":[15.209,37.735]}},{"type":"Feature","properties":{"id":"port-moladibari","name":"Mola Di Bari","harbor_size":"Small"},"geometry":{"type":"Point","coordinates":[17.1,41.062]}},{"type":"Feature","properties":{"id":"port-pozzuoli","name":"Pozzuoli","harbor_size":"Very Small"},"geometry":{"type":"Point","coordinates":[14.11,40.824]}},{"type":"Feature","properties":{"id":"port-pescara","name":"Pescara","harbor_size":"Small"},"geometry":{"type":"Point","coordinates":[14.236,42.464]}},{"type":"Feature","properties":{"id":"port-otranto","name":"Otranto","harbor_size":"Very Small"},"geometry":{"type":"Point","coordinates":[18.493,40.152]}},{"type":"Feature","properties":{"id":"port-procida","name":"Procida","harbor_size":"Small"},"geometry":{"type":"Point","coordinates":[14.031,40.77]}},{"type":"Feature","properties":{"id":"port-reggiodicalabria","name":"Reggio Di Calabria","harbor_size":"Small"},"geometry":{"type":"Point","coordinates":[15.65,38.129]}},{"type":"Feature","properties":{"id":"port-santapanagia","name":"Santa Panagia","harbor_size":"Very Small"},"geometry":{"type":"Point","coordinates":[15.297,37.069]}},{"type":"Feature","properties":{"id":"port-pozzallo","name":"Pozzallo","harbor_size":"Very Small"},"geometry":{"type":"Point","coordinates":[14.85,36.7167]}},{"type":"Feature","properties":{"id":"port-baia","name":"Baia","harbor_size":"Small"},"geometry":{"type":"Point","coordinates":[14.074,40.817]}},{"type":"Feature","properties":{"id":"port-liminsirou","name":"Limin Sirou","harbor_size":"Very Small"},"geometry":{"type":"Point","coordinates":[24.95,37.4333]}},{"type":"Feature","properties":{"id":"port-kalamata","name":"Kalamata","harbor_size":"Small"},"geometry":{"type":"Point","coordinates":[22.1167,37.0167]}},{"type":"Feature","properties":{"id":"port-lipari","name":"Lipari","harbor_size":"Very Small"},"geometry":{"type":"Point","coordinates":[14.9667,38.4833]}},{"type":"Feature","properties":{"id":"port-milos","name":"Milos","harbor_size":"Very Small"},"geometry":{"type":"Point","coordinates":[24.45,36.7167]}},{"type":"Feature","properties":{"id":"port-lakki","name":"Lakki","harbor_size":"Very Small"},"geometry":{"type":"Point","coordinates":[26.85,37.1333]}},{"type":"Feature","properties":{"id":"port-alanya","name":"Alanya","harbor_size":"Very Small"},"geometry":{"type":"Point","coordinates":[32.0,36.5333]}},{"type":"Feature","properties":{"id":"port-yithion","name":"Yithion","harbor_size":"Very Small"},"geometry":{"type":"Point","coordinates":[22.5667,36.75]}},{"type":"Feature","properties":{"id":"port-tasucu","name":"Tasucu","harbor_size":"Very Small"},"geometry":{"type":"Point","coordinates":[33.8833,36.3167]}},{"type":"Feature","properties":{"id":"port-derinceburnu","name":"Derince Burnu","harbor_size":"Small"},"geometry":{"type":"Point","coordinates":[29.8167,40.75]}},{"type":"Feature","properties":{"id":"port-haydarpasa","name":"Haydarpasa","harbor_size":"Medium"},"geometry":{"type":"Point","coordinates":[29.0167,41.0]}},{"type":"Feature","properties":{"id":"port-giresun","name":"Giresun","harbor_size":"Very Small"},"geometry":{"type":"Point","coordinates":[38.4,40.9333]}},{"type":"Feature","properties":{"id":"port-novorossiysk","name":"Novorossiysk","harbor_size":"Large"},"geometry":{"type":"Point","coordinates":[37.7833,44.7167]}},{"type":"Feature","properties":{"id":"port-azov","name":"Azov","harbor_size":"Very Small"},"geometry":{"type":"Point","coordinates":[39.4333,47.1]}},{"type":"Feature","properties":{"id":"port-mariupol","name":"Mariupol","harbor_size":"Small"},"geometry":{"type":"Point","coordinates":[37.5667,47.0833]}},{"type":"Feature","properties":{"id":"port-berdyansk","name":"Berdyansk","harbor_size":"Small"},"geometry":{"type":"Point","coordinates":[36.7833,46.75]}},{"type":"Feature","properties":{"id":"port-kerch","name":"Kerch","harbor_size":"Small"},"geometry":{"type":"Point","coordinates":[36.4833,45.35]}},{"type":"Feature","properties":{"id":"port-feodosiya","name":"Feodosiya","harbor_size":"Small"},"geometry":{"type":"Point","coordinates":[35.4333,45.0167]}},{"type":"Feature","properties":{"id":"port-kherson","name":"Kherson","harbor_size":"Small"},"geometry":{"type":"Point","coordinates":[32.6,46.6167]}},{"type":"Feature","properties":{"id":"port-odesa","name":"Odesa","harbor_size":"Large"},"geometry":{"type":"Point","coordinates":[30.7333,46.4833]}},{"type":"Feature","properties":{"id":"port-illichivsk","name":"Illichivsk","harbor_size":"Large"},"geometry":{"type":"Point","coordinates":[30.65,46.3]}},{"type":"Feature","properties":{"id":"port-constanta","name":"Constanta","harbor_size":"Medium"},"geometry":{"type":"Point","coordinates":[28.65,44.1667]}},{"type":"Feature","properties":{"id":"port-mangalia","name":"Mangalia","harbor_size":"Very Small"},"geometry":{"type":"Point","coordinates":[28.5833,43.8167]}},{"type":"Feature","properties":{"id":"port-istanbul","name":"Istanbul","harbor_size":"Large"},"geometry":{"type":"Point","coordinates":[28.9667,41.0167]}},{"type":"Feature","properties":{"id":"port-galati","name":"Galati","harbor_size":"Small"},"geometry":{"type":"Point","coordinates":[28.0833,45.4167]}},{"type":"Feature","properties":{"id":"port-braila","name":"Braila","harbor_size":"Very Small"},"geometry":{"type":"Point","coordinates":[27.9833,45.25]}},{"type":"Feature","properties":{"id":"port-nowyport","name":"Nowy Port","harbor_size":"Small"},"geometry":{"type":"Point","coordinates":[18.6667,54.4167]}},{"type":"Feature","properties":{"id":"port-gdansk","name":"Gdansk","harbor_size":"Large"},"geometry":{"type":"Point","coordinates":[18.6667,54.35]}},{"type":"Feature","properties":{"id":"port-kaliningrad","name":"Kaliningrad","harbor_size":"Medium"},"geometry":{"type":"Point","coordinates":[20.4833,54.7]}},{"type":"Feature","properties":{"id":"port-mykolayiv","name":"Mykolayiv","harbor_size":"Small"},"geometry":{"type":"Point","coordinates":[31.9833,46.95]}},{"type":"Feature","properties":{"id":"port-kyrylivka","name":"Kyrylivka","harbor_size":"Very Small"},"geometry":{"type":"Point","coordinates":[35.3667,46.35]}},{"type":"Feature","properties":{"id":"port-batumi","name":"Batumi","harbor_size":"Small"},"geometry":{"type":"Point","coordinates":[41.65,41.65]}},{"type":"Feature","properties":{"id":"port-izmit","name":"Izmit","harbor_size":"Small"},"geometry":{"type":"Point","coordinates":[29.9167,40.7667]}},{"type":"Feature","properties":{"id":"port-mitilini","name":"Mitilini","harbor_size":"Small"},"geometry":{"type":"Point","coordinates":[26.5667,39.1]}},{"type":"Feature","properties":{"id":"port-ambarli","name":"Ambarli","harbor_size":"Very Small"},"geometry":{"type":"Point","coordinates":[28.7,40.9667]}},{"type":"Feature","properties":{"id":"port-istinye","name":"Istinye","harbor_size":"Very Small"},"geometry":{"type":"Point","coordinates":[29.05,41.1167]}},{"type":"Feature","properties":{"id":"port-cernavoda","name":"Cernavoda","harbor_size":"Very Small"},"geometry":{"type":"Point","coordinates":[28.05,44.3333]}},{"type":"Feature","properties":{"id":"port-dniprobuzkyy","name":"Dnipro-Buzkyy","harbor_size":"Small"},"geometry":{"type":"Point","coordinates":[31.8833,46.7333]}},{"type":"Feature","properties":{"id":"port-khorly","name":"Khorly","harbor_size":"Very Small"},"geometry":{"type":"Point","coordinates":[33.2833,46.0833]}},{"type":"Feature","properties":{"id":"port-henichesk","name":"Henichesk","harbor_size":"Very Small"},"geometry":{"type":"Point","coordinates":[34.8167,46.1667]}},{"type":"Feature","properties":{"id":"port-kavkazoilterminal","name":"Kavkaz Oil Terminal","harbor_size":"Very Small"},"geometry":{"type":"Point","coordinates":[36.65,45.3333]}},{"type":"Feature","properties":{"id":"port-anapa","name":"Anapa","harbor_size":"Very Small"},"geometry":{"type":"Point","coordinates":[37.3167,44.8833]}},{"type":"Feature","properties":{"id":"port-baltiysk","name":"Baltiysk","harbor_size":"Small"},"geometry":{"type":"Point","coordinates":[19.9,54.6333]}},{"type":"Feature","properties":{"id":"port-christiansoharbor","name":"Christianso Harbor","harbor_size":"Very Small"},"geometry":{"type":"Point","coordinates":[15.1833,55.3167]}},{"type":"Feature","properties":{"id":"port-adler","name":"Adler","harbor_size":"Very Small"},"geometry":{"type":"Point","coordinates":[39.9333,43.4333]}},{"type":"Feature","properties":{"id":"port-hopa","name":"Hopa","harbor_size":"Very Small"},"geometry":{"type":"Point","coordinates":[41.4,41.4167]}},{"type":"Feature","properties":{"id":"port-eregli","name":"Eregli","harbor_size":"Very Small"},"geometry":{"type":"Point","coordinates":[31.45,41.3]}},{"type":"Feature","properties":{"id":"port-botasnaturalgasterminal","name":"Botas Natural Gas Terminal","harbor_size":"Very Small"},"geometry":{"type":"Point","coordinates":[27.9833,41.0]}},{"type":"Feature","properties":{"id":"port-gebze","name":"Gebze","harbor_size":"Very Small"},"geometry":{"type":"Point","coordinates":[29.55,40.7667]}},{"type":"Feature","properties":{"id":"port-golcukburnu","name":"Golcuk Burnu","harbor_size":"Very Small"},"geometry":{"type":"Point","coordinates":[29.8167,40.7333]}},{"type":"Feature","properties":{"id":"port-darlowo","name":"Darlowo","harbor_size":"Very Small"},"geometry":{"type":"Point","coordinates":[16.4167,54.4333]}},{"type":"Feature","properties":{"id":"port-kolobrzeg","name":"Kolobrzeg","harbor_size":"Very Small"},"geometry":{"type":"Point","coordinates":[15.55,54.2167]}},{"type":"Feature","properties":{"id":"port-izmayil","name":"Izmayil","harbor_size":"Very Small"},"geometry":{"type":"Point","coordinates":[28.85,45.3333]}},{"type":"Feature","properties":{"id":"port-belgoroddnestrovsky","name":"Belgorod-Dnestrovsky","harbor_size":"Very Small"},"geometry":{"type":"Point","coordinates":[30.3667,46.1833]}},{"type":"Feature","properties":{"id":"port-chornomorske","name":"Chornomors Ke","harbor_size":"Very Small"},"geometry":{"type":"Point","coordinates":[32.7,45.5167]}},{"type":"Feature","properties":{"id":"port-balaklava","name":"Balaklava","harbor_size":"Very Small"},"geometry":{"type":"Point","coordinates":[33.6,44.5]}},{"type":"Feature","properties":{"id":"port-alushta","name":"Alushta","harbor_size":"Very Small"},"geometry":{"type":"Point","coordinates":[34.4167,44.6833]}},{"type":"Feature","properties":{"id":"port-gelendzhik","name":"Gelendzhik","harbor_size":"Very Small"},"geometry":{"type":"Point","coordinates":[38.0667,44.55]}},{"type":"Feature","properties":{"id":"port-inebolu","name":"Inebolu","harbor_size":"Very Small"},"geometry":{"type":"Point","coordinates":[33.7667,41.9833]}},{"type":"Feature","properties":{"id":"port-kababurnu","name":"Kaba Burnu","harbor_size":"Very Small"},"geometry":{"type":"Point","coordinates":[29.5333,40.7667]}},{"type":"Feature","properties":{"id":"port-hasle","name":"Hasle","harbor_size":"Very Small"},"geometry":{"type":"Point","coordinates":[14.7,55.1833]}},{"type":"Feature","properties":{"id":"port-medgidia","name":"Medgidia","harbor_size":"Very Small"},"geometry":{"type":"Point","coordinates":[28.2667,44.25]}},{"type":"Feature","properties":{"id":"port-defterdarburnu","name":"Defterdar Burnu","harbor_size":"Very Small"},"geometry":{"type":"Point","coordinates":[29.0333,41.05]}},{"type":"Feature","properties":{"id":"port-burgas","name":"Burgas","harbor_size":"Small"},"geometry":{"type":"Point","coordinates":[27.4833,42.4833]}},{"type":"Feature","properties":{"id":"port-basarabi","name":"Basarabi","harbor_size":"Very Small"},"geometry":{"type":"Point","coordinates":[28.4333,44.1667]}},{"type":"Feature","properties":{"id":"port-danubeblackseacanal","name":"Danube-Black Sea Canal","harbor_size":"Medium"},"geometry":{"type":"Point","coordinates":[28.1833,44.2667]}},{"type":"Feature","properties":{"id":"port-midia","name":"Midia","harbor_size":"Very Small"},"geometry":{"type":"Point","coordinates":[28.6667,44.35]}},{"type":"Feature","properties":{"id":"port-rize","name":"Rize","harbor_size":"Very Small"},"geometry":{"type":"Point","coordinates":[40.5167,41.0667]}},{"type":"Feature","properties":{"id":"port-yeysk","name":"Yeysk","harbor_size":"Very Small"},"geometry":{"type":"Point","coordinates":[38.2667,46.7333]}},{"type":"Feature","properties":{"id":"port-zonguldak","name":"Zonguldak","harbor_size":"Very Small"},"geometry":{"type":"Point","coordinates":[31.8167,41.4667]}},{"type":"Feature","properties":{"id":"port-tulcea","name":"Tulcea","harbor_size":"Very Small"},"geometry":{"type":"Point","coordinates":[28.8167,45.1667]}},{"type":"Feature","properties":{"id":"port-rostovnadonu","name":"Rostov-Na-Donu","harbor_size":"Small"},"geometry":{"type":"Point","coordinates":[39.7167,47.1667]}},{"type":"Feature","properties":{"id":"port-sudak","name":"Sudak","harbor_size":"Very Small"},"geometry":{"type":"Point","coordinates":[34.9833,44.85]}},{"type":"Feature","properties":{"id":"port-taganrog","name":"Taganrog","harbor_size":"Very Small"},"geometry":{"type":"Point","coordinates":[38.95,47.2]}},{"type":"Feature","properties":{"id":"port-yevpatoriya","name":"Yevpatoriya","harbor_size":"Very Small"},"geometry":{"type":"Point","coordinates":[33.3833,45.2]}},{"type":"Feature","properties":{"id":"port-ordu","name":"Ordu","harbor_size":"Very Small"},"geometry":{"type":"Point","coordinates":[37.8833,41.0]}},{"type":"Feature","properties":{"id":"port-sinop","name":"Sinop","harbor_size":"Very Small"},"geometry":{"type":"Point","coordinates":[35.1667,42.05]}},{"type":"Feature","properties":{"id":"port-swinoujscie","name":"Swinoujscie","harbor_size":"Small"},"geometry":{"type":"Point","coordinates":[14.2667,53.9167]}},{"type":"Feature","properties":{"id":"port-yalta","name":"Yalta","harbor_size":"Very Small"},"geometry":{"type":"Point","coordinates":[34.1667,44.4833]}},{"type":"Feature","properties":{"id":"port-ustdunaisk","name":"Ust-Dunaisk","harbor_size":"Very Small"},"geometry":{"type":"Point","coordinates":[29.7,45.4667]}},{"type":"Feature","properties":{"id":"port-yarimca","name":"Yarimca","harbor_size":"Small"},"geometry":{"type":"Point","coordinates":[29.7,40.8]}},{"type":"Feature","properties":{"id":"port-police","name":"Police","harbor_size":"Small"},"geometry":{"type":"Point","coordinates":[14.5667,53.5667]}},{"type":"Feature","properties":{"id":"port-samsun","name":"Samsun","harbor_size":"Large"},"geometry":{"type":"Point","coordinates":[36.35,41.3]}},{"type":"Feature","properties":{"id":"port-varna","name":"Varna","harbor_size":"Large"},"geometry":{"type":"Point","coordinates":[27.9667,43.1833]}},{"type":"Feature","properties":{"id":"port-yuzhnyy","name":"Yuzhnyy","harbor_size":"Small"},"geometry":{"type":"Point","coordinates":[31.0167,46.6]}},{"type":"Feature","properties":{"id":"port-temryuk","name":"Temryuk","harbor_size":"Very Small"},"geometry":{"type":"Point","coordinates":[37.35,45.35]}},{"type":"Feature","properties":{"id":"port-tuapse","name":"Tuapse","harbor_size":"Small"},"geometry":{"type":"Point","coordinates":[39.0667,44.1]}},{"type":"Feature","properties":{"id":"port-portoktyabrsk","name":"Port Oktyabrsk","harbor_size":"Very Small"},"geometry":{"type":"Point","coordinates":[31.9333,46.8333]}},{"type":"Feature","properties":{"id":"port-sulina","name":"Sulina","harbor_size":"Very Small"},"geometry":{"type":"Point","coordinates":[29.6667,45.1667]}},{"type":"Feature","properties":{"id":"port-szczecin","name":"Szczecin","harbor_size":"Medium"},"geometry":{"type":"Point","coordinates":[14.55,53.4167]}},{"type":"Feature","properties":{"id":"port-supsamarineterminal","name":"Supsa Marine Terminal","harbor_size":"Very Small"},"geometry":{"type":"Point","coordinates":[41.7167,42.1]}},{"type":"Feature","properties":{"id":"port-skadovsk","name":"Skadovs'k","harbor_size":"Very Small"},"geometry":{"type":"Point","coordinates":[32.9167,46.1]}},{"type":"Feature","properties":{"id":"port-ustka","name":"Ustka","harbor_size":"Small"},"geometry":{"type":"Point","coordinates":[16.85,54.5833]}},{"type":"Feature","properties":{"id":"port-sokhumi","name":"Sokhumi","harbor_size":"Very Small"},"geometry":{"type":"Point","coordinates":[40.9833,42.9833]}},{"type":"Feature","properties":{"id":"port-reni","name":"Reni","harbor_size":"Very Small"},"geometry":{"type":"Point","coordinates":[28.3,45.4333]}},{"type":"Feature","properties":{"id":"port-sochi","name":"Sochi","harbor_size":"Very Small"},"geometry":{"type":"Point","coordinates":[39.7333,43.5833]}},{"type":"Feature","properties":{"id":"port-portpolnochny","name":"Port Polnochny","harbor_size":"Medium"},"geometry":{"type":"Point","coordinates":[18.7167,54.4]}},{"type":"Feature","properties":{"id":"port-trabzon","name":"Trabzon","harbor_size":"Very Small"},"geometry":{"type":"Point","coordinates":[39.7667,41.0167]}},{"type":"Feature","properties":{"id":"port-sevastopol","name":"Sevastopol","harbor_size":"Large"},"geometry":{"type":"Point","coordinates":[33.5333,44.6167]}},{"type":"Feature","properties":{"id":"port-simrishamn","name":"Simrishamn","harbor_size":"Small"},"geometry":{"type":"Point","coordinates":[14.3581,55.5583]}},{"type":"Feature","properties":{"id":"port-gdynia","name":"Gdynia","harbor_size":"Large"},"geometry":{"type":"Point","coordinates":[18.55,54.5333]}},{"type":"Feature","properties":{"id":"port-klaipeda","name":"Klaipeda","harbor_size":"Medium"},"geometry":{"type":"Point","coordinates":[21.1167,55.7167]}},{"type":"Feature","properties":{"id":"port-ahus","name":"Ahus","harbor_size":"Small"},"geometry":{"type":"Point","coordinates":[14.3281,55.9275]}},{"type":"Feature","properties":{"id":"port-nekso","name":"Nekso","harbor_size":"Very Small"},"geometry":{"type":"Point","coordinates":[15.1333,55.0667]}},{"type":"Feature","properties":{"id":"port-ronne","name":"Ronne","harbor_size":"Small"},"geometry":{"type":"Point","coordinates":[14.7,55.1]}},{"type":"Feature","properties":{"id":"port-vlore","name":"Vlore","harbor_size":"Very Small"},"geometry":{"type":"Point","coordinates":[19.5,40.4667]}},{"type":"Feature","properties":{"id":"port-portoromano","name":"Porto Romano","harbor_size":"Medium"},"geometry":{"type":"Point","coordinates":[19.4167,41.3833]}}]}